[
  {
    "area_code": "201",
    "place_name": "Essen",
    "phone_block_from": "1020000",
    "phone_block_to": "1020999",
    "block_size": "1000",
    "phone_provider": "Telekom"
  },
  {
    "area_code": "201",
    "place_name": "Essen",
    "phone_block_from": "1021000",
    "phone_block_to": "1021999",
    "block_size": "1000",
    "phone_provider": "Telekom"
  },
  {
    "area_code": "201",
    "place_name": "Essen",
    "phone_block_from": "1022000",
    "phone_block_to": "1022999",
    "block_size": "1000",
    "phone_provider": "Telekom"
  },
  {
    "area_code": "201",
    "place_name": "Essen",
    "phone_block_from": "1023000",
    "phone_block_to": "1023999",
    "block_size": "1000",
    "phone_provider": "Telekom"
  },
  {
    "area_code": "201",
    "place_name": "Essen",
    "phone_block_from": "1024000",
    "phone_block_to": "1024999",
    "block_size": "1000",
    "phone_provider": "Telekom"
  },
  {
    "area_code": "201",
    "place_name": "Essen",
    "phone_block_from": "1025000",
    "phone_block_to": "1025999",
    "block_size": "1000",
    "phone_provider": "Telekom"
  },
  {
    "area_code": "201",
    "place_name": "Essen",
    "phone_block_from": "1026000",
    "phone_block_to": "1026999",
    "block_size": "1000",
    "phone_provider": "Telekom"
  },
  {
    "area_code": "201",
    "place_name": "Essen",
    "phone_block_from": "1027000",
    "phone_block_to": "1027999",
    "block_size": "1000",
    "phone_provider": "Telekom"
  },
  {
    "area_code": "201",
    "place_name": "Essen",
    "phone_block_from": "1028000",
    "phone_block_to": "1028999",
    "block_size": "1000",
    "phone_provider": "Telekom"
  },
  {
    "area_code": "201",
    "place_name": "Essen",
    "phone_block_from": "1029000",
    "phone_block_to": "1029999",
    "block_size": "1000",
    "phone_provider": "Telekom"
  },
  {
    "area_code": "201",
    "place_name": "Essen",
    "phone_block_from": "1053000",
    "phone_block_to": "1053999",
    "block_size": "1000",
    "phone_provider": "Telekom"
  },
  {
    "area_code": "201",
    "place_name": "Essen",
    "phone_block_from": "1054000",
    "phone_block_to": "1054999",
    "block_size": "1000",
    "phone_provider": "Telekom"
  },
  {
    "area_code": "201",
    "place_name": "Essen",
    "phone_block_from": "1055000",
    "phone_block_to": "1055999",
    "block_size": "1000",
    "phone_provider": "Telekom"
  },
  {
    "area_code": "201",
    "place_name": "Essen",
    "phone_block_from": "1098000",
    "phone_block_to": "1098999",
    "block_size": "1000",
    "phone_provider": "Telekom"
  },
  {
    "area_code": "201",
    "place_name": "Essen",
    "phone_block_from": "1099000",
    "phone_block_to": "1099999",
    "block_size": "1000",
    "phone_provider": "Telekom"
  },
  {
    "area_code": "201",
    "place_name": "Essen",
    "phone_block_from": "1230000",
    "phone_block_to": "1230999",
    "block_size": "1000",
    "phone_provider": "Telekom"
  },
  {
    "area_code": "201",
    "place_name": "Essen",
    "phone_block_from": "1231000",
    "phone_block_to": "1231999",
    "block_size": "1000",
    "phone_provider": "Telekom"
  },
  {
    "area_code": "201",
    "place_name": "Essen",
    "phone_block_from": "1232000",
    "phone_block_to": "1232999",
    "block_size": "1000",
    "phone_provider": "Telekom"
  },
  {
    "area_code": "201",
    "place_name": "Essen",
    "phone_block_from": "1233000",
    "phone_block_to": "1233999",
    "block_size": "1000",
    "phone_provider": "Telekom"
  },
  {
    "area_code": "201",
    "place_name": "Essen",
    "phone_block_from": "1234000",
    "phone_block_to": "1234999",
    "block_size": "1000",
    "phone_provider": "Telekom"
  },
  {
    "area_code": "201",
    "place_name": "Essen",
    "phone_block_from": "1235000",
    "phone_block_to": "1235999",
    "block_size": "1000",
    "phone_provider": "Telekom"
  },
  {
    "area_code": "201",
    "place_name": "Essen",
    "phone_block_from": "1236000",
    "phone_block_to": "1236999",
    "block_size": "1000",
    "phone_provider": "Telekom"
  },
  {
    "area_code": "201",
    "place_name": "Essen",
    "phone_block_from": "1237000",
    "phone_block_to": "1237999",
    "block_size": "1000",
    "phone_provider": "Telekom"
  },
  {
    "area_code": "201",
    "place_name": "Essen",
    "phone_block_from": "1238000",
    "phone_block_to": "1238999",
    "block_size": "1000",
    "phone_provider": "Telekom"
  },
  {
    "area_code": "201",
    "place_name": "Essen",
    "phone_block_from": "1239000",
    "phone_block_to": "1239999",
    "block_size": "1000",
    "phone_provider": "Telekom"
  },
  {
    "area_code": "201",
    "place_name": "Essen",
    "phone_block_from": "1240000",
    "phone_block_to": "1240999",
    "block_size": "1000",
    "phone_provider": "Telekom"
  },
  {
    "area_code": "201",
    "place_name": "Essen",
    "phone_block_from": "1241000",
    "phone_block_to": "1241999",
    "block_size": "1000",
    "phone_provider": "Telekom"
  },
  {
    "area_code": "201",
    "place_name": "Essen",
    "phone_block_from": "1242000",
    "phone_block_to": "1242999",
    "block_size": "1000",
    "phone_provider": "Telekom"
  },
  {
    "area_code": "201",
    "place_name": "Essen",
    "phone_block_from": "1243000",
    "phone_block_to": "1243999",
    "block_size": "1000",
    "phone_provider": "Telekom"
  },
  {
    "area_code": "201",
    "place_name": "Essen",
    "phone_block_from": "1244000",
    "phone_block_to": "1244999",
    "block_size": "1000",
    "phone_provider": "Telekom"
  },
  {
    "area_code": "201",
    "place_name": "Essen",
    "phone_block_from": "1245000",
    "phone_block_to": "1245999",
    "block_size": "1000",
    "phone_provider": "Telekom"
  },
  {
    "area_code": "201",
    "place_name": "Essen",
    "phone_block_from": "1246000",
    "phone_block_to": "1246999",
    "block_size": "1000",
    "phone_provider": "Telekom"
  },
  {
    "area_code": "201",
    "place_name": "Essen",
    "phone_block_from": "1247000",
    "phone_block_to": "1247999",
    "block_size": "1000",
    "phone_provider": "Telekom"
  },
  {
    "area_code": "201",
    "place_name": "Essen",
    "phone_block_from": "1248000",
    "phone_block_to": "1248999",
    "block_size": "1000",
    "phone_provider": "Telekom"
  },
  {
    "area_code": "201",
    "place_name": "Essen",
    "phone_block_from": "1249000",
    "phone_block_to": "1249999",
    "block_size": "1000",
    "phone_provider": "Telekom"
  },
  {
    "area_code": "201",
    "place_name": "Essen",
    "phone_block_from": "1250000",
    "phone_block_to": "1250999",
    "block_size": "1000",
    "phone_provider": "Telekom"
  },
  {
    "area_code": "201",
    "place_name": "Essen",
    "phone_block_from": "1251000",
    "phone_block_to": "1251999",
    "block_size": "1000",
    "phone_provider": "Telekom"
  },
  {
    "area_code": "201",
    "place_name": "Essen",
    "phone_block_from": "1252000",
    "phone_block_to": "1252999",
    "block_size": "1000",
    "phone_provider": "Telekom"
  },
  {
    "area_code": "201",
    "place_name": "Essen",
    "phone_block_from": "1253000",
    "phone_block_to": "1253999",
    "block_size": "1000",
    "phone_provider": "Telekom"
  },
  {
    "area_code": "201",
    "place_name": "Essen",
    "phone_block_from": "1254000",
    "phone_block_to": "1254999",
    "block_size": "1000",
    "phone_provider": "Telekom"
  },
  {
    "area_code": "201",
    "place_name": "Essen",
    "phone_block_from": "1255000",
    "phone_block_to": "1255999",
    "block_size": "1000",
    "phone_provider": "Telekom"
  },
  {
    "area_code": "201",
    "place_name": "Essen",
    "phone_block_from": "1256000",
    "phone_block_to": "1256999",
    "block_size": "1000",
    "phone_provider": "Telekom"
  },
  {
    "area_code": "201",
    "place_name": "Essen",
    "phone_block_from": "1257000",
    "phone_block_to": "1257999",
    "block_size": "1000",
    "phone_provider": "Telekom"
  },
  {
    "area_code": "201",
    "place_name": "Essen",
    "phone_block_from": "1258000",
    "phone_block_to": "1258999",
    "block_size": "1000",
    "phone_provider": "Telekom"
  },
  {
    "area_code": "201",
    "place_name": "Essen",
    "phone_block_from": "1259000",
    "phone_block_to": "1259999",
    "block_size": "1000",
    "phone_provider": "Telekom"
  },
  {
    "area_code": "201",
    "place_name": "Essen",
    "phone_block_from": "1700000",
    "phone_block_to": "1700999",
    "block_size": "1000",
    "phone_provider": "Telekom"
  },
  {
    "area_code": "201",
    "place_name": "Essen",
    "phone_block_from": "1703000",
    "phone_block_to": "1703999",
    "block_size": "1000",
    "phone_provider": "Telekom"
  },
  {
    "area_code": "201",
    "place_name": "Essen",
    "phone_block_from": "1710000",
    "phone_block_to": "1710999",
    "block_size": "1000",
    "phone_provider": "Vodafone"
  },
  {
    "area_code": "201",
    "place_name": "Essen",
    "phone_block_from": "1711000",
    "phone_block_to": "1711999",
    "block_size": "1000",
    "phone_provider": "Vodafone"
  },
  {
    "area_code": "201",
    "place_name": "Essen",
    "phone_block_from": "1712000",
    "phone_block_to": "1712999",
    "block_size": "1000",
    "phone_provider": "Vodafone"
  },
  {
    "area_code": "201",
    "place_name": "Essen",
    "phone_block_from": "1713000",
    "phone_block_to": "1713999",
    "block_size": "1000",
    "phone_provider": "Vodafone"
  },
  {
    "area_code": "201",
    "place_name": "Essen",
    "phone_block_from": "1714000",
    "phone_block_to": "1714999",
    "block_size": "1000",
    "phone_provider": "Vodafone"
  },
  {
    "area_code": "201",
    "place_name": "Essen",
    "phone_block_from": "1715000",
    "phone_block_to": "1715999",
    "block_size": "1000",
    "phone_provider": "Vodafone"
  },
  {
    "area_code": "201",
    "place_name": "Essen",
    "phone_block_from": "1716000",
    "phone_block_to": "1716999",
    "block_size": "1000",
    "phone_provider": "Vodafone"
  },
  {
    "area_code": "201",
    "place_name": "Essen",
    "phone_block_from": "1717000",
    "phone_block_to": "1717999",
    "block_size": "1000",
    "phone_provider": "Vodafone"
  },
  {
    "area_code": "201",
    "place_name": "Essen",
    "phone_block_from": "1718000",
    "phone_block_to": "1718999",
    "block_size": "1000",
    "phone_provider": "Vodafone"
  },
  {
    "area_code": "201",
    "place_name": "Essen",
    "phone_block_from": "1719000",
    "phone_block_to": "1719999",
    "block_size": "1000",
    "phone_provider": "Vodafone"
  },
  {
    "area_code": "201",
    "place_name": "Essen",
    "phone_block_from": "1752000",
    "phone_block_to": "1752999",
    "block_size": "1000",
    "phone_provider": "Telekom"
  },
  {
    "area_code": "201",
    "place_name": "Essen",
    "phone_block_from": "1754000",
    "phone_block_to": "1754999",
    "block_size": "1000",
    "phone_provider": "Telekom"
  },
  {
    "area_code": "201",
    "place_name": "Essen",
    "phone_block_from": "1755000",
    "phone_block_to": "1755999",
    "block_size": "1000",
    "phone_provider": "Telekom"
  },
  {
    "area_code": "201",
    "place_name": "Essen",
    "phone_block_from": "1760000",
    "phone_block_to": "1760999",
    "block_size": "1000",
    "phone_provider": "Telekom"
  },
  {
    "area_code": "201",
    "place_name": "Essen",
    "phone_block_from": "1761000",
    "phone_block_to": "1761999",
    "block_size": "1000",
    "phone_provider": "Telekom"
  },
  {
    "area_code": "201",
    "place_name": "Essen",
    "phone_block_from": "1762000",
    "phone_block_to": "1762999",
    "block_size": "1000",
    "phone_provider": "Telekom"
  },
  {
    "area_code": "201",
    "place_name": "Essen",
    "phone_block_from": "1763000",
    "phone_block_to": "1763999",
    "block_size": "1000",
    "phone_provider": "Telekom"
  },
  {
    "area_code": "201",
    "place_name": "Essen",
    "phone_block_from": "1764000",
    "phone_block_to": "1764999",
    "block_size": "1000",
    "phone_provider": "Telekom"
  },
  {
    "area_code": "201",
    "place_name": "Essen",
    "phone_block_from": "1765000",
    "phone_block_to": "1765999",
    "block_size": "1000",
    "phone_provider": "Telekom"
  },
  {
    "area_code": "201",
    "place_name": "Essen",
    "phone_block_from": "1766000",
    "phone_block_to": "1766999",
    "block_size": "1000",
    "phone_provider": "Telekom"
  },
  {
    "area_code": "201",
    "place_name": "Essen",
    "phone_block_from": "1767000",
    "phone_block_to": "1767999",
    "block_size": "1000",
    "phone_provider": "Telekom"
  },
  {
    "area_code": "201",
    "place_name": "Essen",
    "phone_block_from": "1768000",
    "phone_block_to": "1768999",
    "block_size": "1000",
    "phone_provider": "Telekom"
  },
  {
    "area_code": "201",
    "place_name": "Essen",
    "phone_block_from": "1770000",
    "phone_block_to": "1770999",
    "block_size": "1000",
    "phone_provider": "Telekom"
  },
  {
    "area_code": "201",
    "place_name": "Essen",
    "phone_block_from": "1771000",
    "phone_block_to": "1771999",
    "block_size": "1000",
    "phone_provider": "Telekom"
  },
  {
    "area_code": "201",
    "place_name": "Essen",
    "phone_block_from": "1772000",
    "phone_block_to": "1772999",
    "block_size": "1000",
    "phone_provider": "Telekom"
  },
  {
    "area_code": "201",
    "place_name": "Essen",
    "phone_block_from": "1773000",
    "phone_block_to": "1773999",
    "block_size": "1000",
    "phone_provider": "Telekom"
  },
  {
    "area_code": "201",
    "place_name": "Essen",
    "phone_block_from": "1774000",
    "phone_block_to": "1774999",
    "block_size": "1000",
    "phone_provider": "Telekom"
  },
  {
    "area_code": "201",
    "place_name": "Essen",
    "phone_block_from": "1775000",
    "phone_block_to": "1775999",
    "block_size": "1000",
    "phone_provider": "Telekom"
  },
  {
    "area_code": "201",
    "place_name": "Essen",
    "phone_block_from": "1776000",
    "phone_block_to": "1776999",
    "block_size": "1000",
    "phone_provider": "Telekom"
  },
  {
    "area_code": "201",
    "place_name": "Essen",
    "phone_block_from": "1777000",
    "phone_block_to": "1777999",
    "block_size": "1000",
    "phone_provider": "Telekom"
  },
  {
    "area_code": "201",
    "place_name": "Essen",
    "phone_block_from": "1778000",
    "phone_block_to": "1778999",
    "block_size": "1000",
    "phone_provider": "Telekom"
  },
  {
    "area_code": "201",
    "place_name": "Essen",
    "phone_block_from": "1779000",
    "phone_block_to": "1779999",
    "block_size": "1000",
    "phone_provider": "Telekom"
  },
  {
    "area_code": "201",
    "place_name": "Essen",
    "phone_block_from": "1784000",
    "phone_block_to": "1784999",
    "block_size": "1000",
    "phone_provider": "Telekom"
  },
  {
    "area_code": "201",
    "place_name": "Essen",
    "phone_block_from": "1786000",
    "phone_block_to": "1786999",
    "block_size": "1000",
    "phone_provider": "Telekom"
  },
  {
    "area_code": "201",
    "place_name": "Essen",
    "phone_block_from": "1787000",
    "phone_block_to": "1787999",
    "block_size": "1000",
    "phone_provider": "Telekom"
  },
  {
    "area_code": "201",
    "place_name": "Essen",
    "phone_block_from": "1788000",
    "phone_block_to": "1788999",
    "block_size": "1000",
    "phone_provider": "Telekom"
  },
  {
    "area_code": "201",
    "place_name": "Essen",
    "phone_block_from": "1789000",
    "phone_block_to": "1789999",
    "block_size": "1000",
    "phone_provider": "Telekom"
  },
  {
    "area_code": "201",
    "place_name": "Essen",
    "phone_block_from": "1804000",
    "phone_block_to": "1804999",
    "block_size": "1000",
    "phone_provider": "Telekom"
  },
  {
    "area_code": "201",
    "place_name": "Essen",
    "phone_block_from": "1805000",
    "phone_block_to": "1805999",
    "block_size": "1000",
    "phone_provider": "Telekom"
  },
  {
    "area_code": "201",
    "place_name": "Essen",
    "phone_block_from": "1807000",
    "phone_block_to": "1807999",
    "block_size": "1000",
    "phone_provider": "Telekom"
  },
  {
    "area_code": "201",
    "place_name": "Essen",
    "phone_block_from": "1830000",
    "phone_block_to": "1830999",
    "block_size": "1000",
    "phone_provider": "Telekom"
  },
  {
    "area_code": "201",
    "place_name": "Essen",
    "phone_block_from": "1831000",
    "phone_block_to": "1831999",
    "block_size": "1000",
    "phone_provider": "Telekom"
  },
  {
    "area_code": "201",
    "place_name": "Essen",
    "phone_block_from": "1832000",
    "phone_block_to": "1832999",
    "block_size": "1000",
    "phone_provider": "Telekom"
  },
  {
    "area_code": "201",
    "place_name": "Essen",
    "phone_block_from": "1833000",
    "phone_block_to": "1833999",
    "block_size": "1000",
    "phone_provider": "Telekom"
  }
]