[
  {
    "area_code": "201",
    "place_name": "Essen",
    "phone_block_from": "1020000",
    "phone_block_to": "1020999",
    "block_size": "1000",
    "phone_provider": "Telekom"
  },
  {
    "area_code": "201",
    "place_name": "Essen",
    "phone_block_from": "1021000",
    "phone_block_to": "1021999",
    "block_size": "1000",
    "phone_provider": "Telekom"
  },
  {
    "area_code": "201",
    "place_name": "Essen",
    "phone_block_from": "1022000",
    "phone_block_to": "1022999",
    "block_size": "1000",
    "phone_provider": "Telekom"
  },
  {
    "area_code": "201",
    "place_name": "Essen",
    "phone_block_from": "1023000",
    "phone_block_to": "1023999",
    "block_size": "1000",
    "phone_provider": "Telekom"
  },
  {
    "area_code": "201",
    "place_name": "Essen",
    "phone_block_from": "1024000",
    "phone_block_to": "1024999",
    "block_size": "1000",
    "phone_provider": "Telekom"
  },
  {
    "area_code": "201",
    "place_name": "Essen",
    "phone_block_from": "1025000",
    "phone_block_to": "1025999",
    "block_size": "1000",
    "phone_provider": "Telekom"
  },
  {
    "area_code": "201",
    "place_name": "Essen",
    "phone_block_from": "1026000",
    "phone_block_to": "1026999",
    "block_size": "1000",
    "phone_provider": "Telekom"
  },
  {
    "area_code": "201",
    "place_name": "Essen",
    "phone_block_from": "1027000",
    "phone_block_to": "1027999",
    "block_size": "1000",
    "phone_provider": "Telekom"
  },
  {
    "area_code": "201",
    "place_name": "Essen",
    "phone_block_from": "1028000",
    "phone_block_to": "1028999",
    "block_size": "1000",
    "phone_provider": "Telekom"
  },
  {
    "area_code": "201",
    "place_name": "Essen",
    "phone_block_from": "1029000",
    "phone_block_to": "1029999",
    "block_size": "1000",
    "phone_provider": "Telekom"
  },
  {
    "area_code": "201",
    "place_name": "Essen",
    "phone_block_from": "1053000",
    "phone_block_to": "1053999",
    "block_size": "1000",
    "phone_provider": "Telekom"
  },
  {
    "area_code": "201",
    "place_name": "Essen",
    "phone_block_from": "1054000",
    "phone_block_to": "1054999",
    "block_size": "1000",
    "phone_provider": "Telekom"
  },
  {
    "area_code": "201",
    "place_name": "Essen",
    "phone_block_from": "1055000",
    "phone_block_to": "1055999",
    "block_size": "1000",
    "phone_provider": "Telekom"
  },
  {
    "area_code": "201",
    "place_name": "Essen",
    "phone_block_from": "1098000",
    "phone_block_to": "1098999",
    "block_size": "1000",
    "phone_provider": "Telekom"
  },
  {
    "area_code": "201",
    "place_name": "Essen",
    "phone_block_from": "1099000",
    "phone_block_to": "1099999",
    "block_size": "1000",
    "phone_provider": "Telekom"
  },
  {
    "area_code": "201",
    "place_name": "Essen",
    "phone_block_from": "1230000",
    "phone_block_to": "1230999",
    "block_size": "1000",
    "phone_provider": "Telekom"
  },
  {
    "area_code": "201",
    "place_name": "Essen",
    "phone_block_from": "1231000",
    "phone_block_to": "1231999",
    "block_size": "1000",
    "phone_provider": "Telekom"
  },
  {
    "area_code": "201",
    "place_name": "Essen",
    "phone_block_from": "1232000",
    "phone_block_to": "1232999",
    "block_size": "1000",
    "phone_provider": "Telekom"
  },
  {
    "area_code": "201",
    "place_name": "Essen",
    "phone_block_from": "1233000",
    "phone_block_to": "1233999",
    "block_size": "1000",
    "phone_provider": "Telekom"
  },
  {
    "area_code": "201",
    "place_name": "Essen",
    "phone_block_from": "1234000",
    "phone_block_to": "1234999",
    "block_size": "1000",
    "phone_provider": "Telekom"
  },
  {
    "area_code": "201",
    "place_name": "Essen",
    "phone_block_from": "1235000",
    "phone_block_to": "1235999",
    "block_size": "1000",
    "phone_provider": "Telekom"
  },
  {
    "area_code": "201",
    "place_name": "Essen",
    "phone_block_from": "1236000",
    "phone_block_to": "1236999",
    "block_size": "1000",
    "phone_provider": "Telekom"
  },
  {
    "area_code": "201",
    "place_name": "Essen",
    "phone_block_from": "1237000",
    "phone_block_to": "1237999",
    "block_size": "1000",
    "phone_provider": "Telekom"
  },
  {
    "area_code": "201",
    "place_name": "Essen",
    "phone_block_from": "1238000",
    "phone_block_to": "1238999",
    "block_size": "1000",
    "phone_provider": "Telekom"
  },
  {
    "area_code": "201",
    "place_name": "Essen",
    "phone_block_from": "1239000",
    "phone_block_to": "1239999",
    "block_size": "1000",
    "phone_provider": "Telekom"
  },
  {
    "area_code": "201",
    "place_name": "Essen",
    "phone_block_from": "1240000",
    "phone_block_to": "1240999",
    "block_size": "1000",
    "phone_provider": "Telekom"
  },
  {
    "area_code": "201",
    "place_name": "Essen",
    "phone_block_from": "1241000",
    "phone_block_to": "1241999",
    "block_size": "1000",
    "phone_provider": "Telekom"
  },
  {
    "area_code": "201",
    "place_name": "Essen",
    "phone_block_from": "1242000",
    "phone_block_to": "1242999",
    "block_size": "1000",
    "phone_provider": "Telekom"
  },
  {
    "area_code": "201",
    "place_name": "Essen",
    "phone_block_from": "1243000",
    "phone_block_to": "1243999",
    "block_size": "1000",
    "phone_provider": "Telekom"
  },
  {
    "area_code": "201",
    "place_name": "Essen",
    "phone_block_from": "1244000",
    "phone_block_to": "1244999",
    "block_size": "1000",
    "phone_provider": "Telekom"
  },
  {
    "area_code": "201",
    "place_name": "Essen",
    "phone_block_from": "1245000",
    "phone_block_to": "1245999",
    "block_size": "1000",
    "phone_provider": "Telekom"
  },
  {
    "area_code": "201",
    "place_name": "Essen",
    "phone_block_from": "1246000",
    "phone_block_to": "1246999",
    "block_size": "1000",
    "phone_provider": "Telekom"
  },
  {
    "area_code": "201",
    "place_name": "Essen",
    "phone_block_from": "1247000",
    "phone_block_to": "1247999",
    "block_size": "1000",
    "phone_provider": "Telekom"
  },
  {
    "area_code": "201",
    "place_name": "Essen",
    "phone_block_from": "1248000",
    "phone_block_to": "1248999",
    "block_size": "1000",
    "phone_provider": "Telekom"
  },
  {
    "area_code": "201",
    "place_name": "Essen",
    "phone_block_from": "1249000",
    "phone_block_to": "1249999",
    "block_size": "1000",
    "phone_provider": "Telekom"
  },
  {
    "area_code": "201",
    "place_name": "Essen",
    "phone_block_from": "1250000",
    "phone_block_to": "1250999",
    "block_size": "1000",
    "phone_provider": "Telekom"
  },
  {
    "area_code": "201",
    "place_name": "Essen",
    "phone_block_from": "1251000",
    "phone_block_to": "1251999",
    "block_size": "1000",
    "phone_provider": "Telekom"
  },
  {
    "area_code": "201",
    "place_name": "Essen",
    "phone_block_from": "1252000",
    "phone_block_to": "1252999",
    "block_size": "1000",
    "phone_provider": "Telekom"
  },
  {
    "area_code": "201",
    "place_name": "Essen",
    "phone_block_from": "1253000",
    "phone_block_to": "1253999",
    "block_size": "1000",
    "phone_provider": "Telekom"
  },
  {
    "area_code": "201",
    "place_name": "Essen",
    "phone_block_from": "1254000",
    "phone_block_to": "1254999",
    "block_size": "1000",
    "phone_provider": "Telekom"
  },
  {
    "area_code": "201",
    "place_name": "Essen",
    "phone_block_from": "1255000",
    "phone_block_to": "1255999",
    "block_size": "1000",
    "phone_provider": "Telekom"
  },
  {
    "area_code": "201",
    "place_name": "Essen",
    "phone_block_from": "1256000",
    "phone_block_to": "1256999",
    "block_size": "1000",
    "phone_provider": "Telekom"
  },
  {
    "area_code": "201",
    "place_name": "Essen",
    "phone_block_from": "1257000",
    "phone_block_to": "1257999",
    "block_size": "1000",
    "phone_provider": "Telekom"
  },
  {
    "area_code": "201",
    "place_name": "Essen",
    "phone_block_from": "1258000",
    "phone_block_to": "1258999",
    "block_size": "1000",
    "phone_provider": "Telekom"
  },
  {
    "area_code": "201",
    "place_name": "Essen",
    "phone_block_from": "1259000",
    "phone_block_to": "1259999",
    "block_size": "1000",
    "phone_provider": "Telekom"
  },
  {
    "area_code": "201",
    "place_name": "Essen",
    "phone_block_from": "1700000",
    "phone_block_to": "1700999",
    "block_size": "1000",
    "phone_provider": "Telekom"
  },
  {
    "area_code": "201",
    "place_name": "Essen",
    "phone_block_from": "1703000",
    "phone_block_to": "1703999",
    "block_size": "1000",
    "phone_provider": "Telekom"
  },
  {
    "area_code": "201",
    "place_name": "Essen",
    "phone_block_from": "1710000",
    "phone_block_to": "1710999",
    "block_size": "1000",
    "phone_provider": "Vodafone"
  },
  {
    "area_code": "201",
    "place_name": "Essen",
    "phone_block_from": "1711000",
    "phone_block_to": "1711999",
    "block_size": "1000",
    "phone_provider": "Vodafone"
  },
  {
    "area_code": "201",
    "place_name": "Essen",
    "phone_block_from": "1712000",
    "phone_block_to": "1712999",
    "block_size": "1000",
    "phone_provider": "Vodafone"
  },
  {
    "area_code": "201",
    "place_name": "Essen",
    "phone_block_from": "1713000",
    "phone_block_to": "1713999",
    "block_size": "1000",
    "phone_provider": "Vodafone"
  },
  {
    "area_code": "201",
    "place_name": "Essen",
    "phone_block_from": "1714000",
    "phone_block_to": "1714999",
    "block_size": "1000",
    "phone_provider": "Vodafone"
  },
  {
    "area_code": "201",
    "place_name": "Essen",
    "phone_block_from": "1715000",
    "phone_block_to": "1715999",
    "block_size": "1000",
    "phone_provider": "Vodafone"
  },
  {
    "area_code": "201",
    "place_name": "Essen",
    "phone_block_from": "1716000",
    "phone_block_to": "1716999",
    "block_size": "1000",
    "phone_provider": "Vodafone"
  },
  {
    "area_code": "201",
    "place_name": "Essen",
    "phone_block_from": "1717000",
    "phone_block_to": "1717999",
    "block_size": "1000",
    "phone_provider": "Vodafone"
  },
  {
    "area_code": "201",
    "place_name": "Essen",
    "phone_block_from": "1718000",
    "phone_block_to": "1718999",
    "block_size": "1000",
    "phone_provider": "Vodafone"
  },
  {
    "area_code": "201",
    "place_name": "Essen",
    "phone_block_from": "1719000",
    "phone_block_to": "1719999",
    "block_size": "1000",
    "phone_provider": "Vodafone"
  },
  {
    "area_code": "201",
    "place_name": "Essen",
    "phone_block_from": "1752000",
    "phone_block_to": "1752999",
    "block_size": "1000",
    "phone_provider": "Telekom"
  },
  {
    "area_code": "201",
    "place_name": "Essen",
    "phone_block_from": "1754000",
    "phone_block_to": "1754999",
    "block_size": "1000",
    "phone_provider": "Telekom"
  },
  {
    "area_code": "201",
    "place_name": "Essen",
    "phone_block_from": "1755000",
    "phone_block_to": "1755999",
    "block_size": "1000",
    "phone_provider": "Telekom"
  },
  {
    "area_code": "201",
    "place_name": "Essen",
    "phone_block_from": "1760000",
    "phone_block_to": "1760999",
    "block_size": "1000",
    "phone_provider": "Telekom"
  },
  {
    "area_code": "201",
    "place_name": "Essen",
    "phone_block_from": "1761000",
    "phone_block_to": "1761999",
    "block_size": "1000",
    "phone_provider": "Telekom"
  },
  {
    "area_code": "201",
    "place_name": "Essen",
    "phone_block_from": "1762000",
    "phone_block_to": "1762999",
    "block_size": "1000",
    "phone_provider": "Telekom"
  },
  {
    "area_code": "201",
    "place_name": "Essen",
    "phone_block_from": "1763000",
    "phone_block_to": "1763999",
    "block_size": "1000",
    "phone_provider": "Telekom"
  },
  {
    "area_code": "201",
    "place_name": "Essen",
    "phone_block_from": "1764000",
    "phone_block_to": "1764999",
    "block_size": "1000",
    "phone_provider": "Telekom"
  },
  {
    "area_code": "201",
    "place_name": "Essen",
    "phone_block_from": "1765000",
    "phone_block_to": "1765999",
    "block_size": "1000",
    "phone_provider": "Telekom"
  },
  {
    "area_code": "201",
    "place_name": "Essen",
    "phone_block_from": "1766000",
    "phone_block_to": "1766999",
    "block_size": "1000",
    "phone_provider": "Telekom"
  },
  {
    "area_code": "201",
    "place_name": "Essen",
    "phone_block_from": "1767000",
    "phone_block_to": "1767999",
    "block_size": "1000",
    "phone_provider": "Telekom"
  },
  {
    "area_code": "201",
    "place_name": "Essen",
    "phone_block_from": "1768000",
    "phone_block_to": "1768999",
    "block_size": "1000",
    "phone_provider": "Telekom"
  },
  {
    "area_code": "201",
    "place_name": "Essen",
    "phone_block_from": "1770000",
    "phone_block_to": "1770999",
    "block_size": "1000",
    "phone_provider": "Telekom"
  },
  {
    "area_code": "201",
    "place_name": "Essen",
    "phone_block_from": "1771000",
    "phone_block_to": "1771999",
    "block_size": "1000",
    "phone_provider": "Telekom"
  },
  {
    "area_code": "201",
    "place_name": "Essen",
    "phone_block_from": "1772000",
    "phone_block_to": "1772999",
    "block_size": "1000",
    "phone_provider": "Telekom"
  },
  {
    "area_code": "201",
    "place_name": "Essen",
    "phone_block_from": "1773000",
    "phone_block_to": "1773999",
    "block_size": "1000",
    "phone_provider": "Telekom"
  },
  {
    "area_code": "201",
    "place_name": "Essen",
    "phone_block_from": "1774000",
    "phone_block_to": "1774999",
    "block_size": "1000",
    "phone_provider": "Telekom"
  },
  {
    "area_code": "201",
    "place_name": "Essen",
    "phone_block_from": "1775000",
    "phone_block_to": "1775999",
    "block_size": "1000",
    "phone_provider": "Telekom"
  },
  {
    "area_code": "201",
    "place_name": "Essen",
    "phone_block_from": "1776000",
    "phone_block_to": "1776999",
    "block_size": "1000",
    "phone_provider": "Telekom"
  },
  {
    "area_code": "201",
    "place_name": "Essen",
    "phone_block_from": "1777000",
    "phone_block_to": "1777999",
    "block_size": "1000",
    "phone_provider": "Telekom"
  },
  {
    "area_code": "201",
    "place_name": "Essen",
    "phone_block_from": "1778000",
    "phone_block_to": "1778999",
    "block_size": "1000",
    "phone_provider": "Telekom"
  },
  {
    "area_code": "201",
    "place_name": "Essen",
    "phone_block_from": "1779000",
    "phone_block_to": "1779999",
    "block_size": "1000",
    "phone_provider": "Telekom"
  },
  {
    "area_code": "201",
    "place_name": "Essen",
    "phone_block_from": "1784000",
    "phone_block_to": "1784999",
    "block_size": "1000",
    "phone_provider": "Telekom"
  },
  {
    "area_code": "201",
    "place_name": "Essen",
    "phone_block_from": "1786000",
    "phone_block_to": "1786999",
    "block_size": "1000",
    "phone_provider": "Telekom"
  },
  {
    "area_code": "201",
    "place_name": "Essen",
    "phone_block_from": "1787000",
    "phone_block_to": "1787999",
    "block_size": "1000",
    "phone_provider": "Telekom"
  },
  {
    "area_code": "201",
    "place_name": "Essen",
    "phone_block_from": "1788000",
    "phone_block_to": "1788999",
    "block_size": "1000",
    "phone_provider": "Telekom"
  },
  {
    "area_code": "201",
    "place_name": "Essen",
    "phone_block_from": "1789000",
    "phone_block_to": "1789999",
    "block_size": "1000",
    "phone_provider": "Telekom"
  },
  {
    "area_code": "201",
    "place_name": "Essen",
    "phone_block_from": "1804000",
    "phone_block_to": "1804999",
    "block_size": "1000",
    "phone_provider": "Telekom"
  },
  {
    "area_code": "201",
    "place_name": "Essen",
    "phone_block_from": "1805000",
    "phone_block_to": "1805999",
    "block_size": "1000",
    "phone_provider": "Telekom"
  },
  {
    "area_code": "201",
    "place_name": "Essen",
    "phone_block_from": "1807000",
    "phone_block_to": "1807999",
    "block_size": "1000",
    "phone_provider": "Telekom"
  },
  {
    "area_code": "201",
    "place_name": "Essen",
    "phone_block_from": "1830000",
    "phone_block_to": "1830999",
    "block_size": "1000",
    "phone_provider": "Telekom"
  },
  {
    "area_code": "201",
    "place_name": "Essen",
    "phone_block_from": "1831000",
    "phone_block_to": "1831999",
    "block_size": "1000",
    "phone_provider": "Telekom"
  },
  {
    "area_code": "201",
    "place_name": "Essen",
    "phone_block_from": "1832000",
    "phone_block_to": "1832999",
    "block_size": "1000",
    "phone_provider": "Telekom"
  },
  {
    "area_code": "201",
    "place_name": "Essen",
    "phone_block_from": "1833000",
    "phone_block_to": "1833999",
    "block_size": "1000",
    "phone_provider": "Telekom"
  },
  {
    "area_code": "201",
    "place_name": "Essen",
    "phone_block_from": "1834000",
    "phone_block_to": "1834999",
    "block_size": "1000",
    "phone_provider": "Telekom"
  },
  {
    "area_code": "201",
    "place_name": "Essen",
    "phone_block_from": "1835000",
    "phone_block_to": "1835999",
    "block_size": "1000",
    "phone_provider": "Telekom"
  },
  {
    "area_code": "201",
    "place_name": "Essen",
    "phone_block_from": "1836000",
    "phone_block_to": "1836999",
    "block_size": "1000",
    "phone_provider": "Telekom"
  },
  {
    "area_code": "201",
    "place_name": "Essen",
    "phone_block_from": "1837000",
    "phone_block_to": "1837999",
    "block_size": "1000",
    "phone_provider": "Telekom"
  },
  {
    "area_code": "201",
    "place_name": "Essen",
    "phone_block_from": "1838000",
    "phone_block_to": "1838999",
    "block_size": "1000",
    "phone_provider": "Telekom"
  },
  {
    "area_code": "201",
    "place_name": "Essen",
    "phone_block_from": "1839000",
    "phone_block_to": "1839999",
    "block_size": "1000",
    "phone_provider": "Telekom"
  },
  {
    "area_code": "201",
    "place_name": "Essen",
    "phone_block_from": "1850000",
    "phone_block_to": "1850999",
    "block_size": "1000",
    "phone_provider": "1u1VersatelD"
  },
  {
    "area_code": "201",
    "place_name": "Essen",
    "phone_block_from": "1851000",
    "phone_block_to": "1851999",
    "block_size": "1000",
    "phone_provider": "1u1VersatelD"
  },
  {
    "area_code": "201",
    "place_name": "Essen",
    "phone_block_from": "1852000",
    "phone_block_to": "1852999",
    "block_size": "1000",
    "phone_provider": "1u1VersatelD"
  },
  {
    "area_code": "201",
    "place_name": "Essen",
    "phone_block_from": "1853000",
    "phone_block_to": "1853999",
    "block_size": "1000",
    "phone_provider": "1u1VersatelD"
  },
  {
    "area_code": "201",
    "place_name": "Essen",
    "phone_block_from": "1854000",
    "phone_block_to": "1854999",
    "block_size": "1000",
    "phone_provider": "1u1VersatelD"
  },
  {
    "area_code": "201",
    "place_name": "Essen",
    "phone_block_from": "1855000",
    "phone_block_to": "1855999",
    "block_size": "1000",
    "phone_provider": "1u1VersatelD"
  },
  {
    "area_code": "201",
    "place_name": "Essen",
    "phone_block_from": "1856000",
    "phone_block_to": "1856999",
    "block_size": "1000",
    "phone_provider": "1u1VersatelD"
  },
  {
    "area_code": "201",
    "place_name": "Essen",
    "phone_block_from": "1857000",
    "phone_block_to": "1857999",
    "block_size": "1000",
    "phone_provider": "1u1VersatelD"
  },
  {
    "area_code": "201",
    "place_name": "Essen",
    "phone_block_from": "1858000",
    "phone_block_to": "1858999",
    "block_size": "1000",
    "phone_provider": "1u1VersatelD"
  },
  {
    "area_code": "201",
    "place_name": "Essen",
    "phone_block_from": "1859000",
    "phone_block_to": "1859999",
    "block_size": "1000",
    "phone_provider": "1u1VersatelD"
  },
  {
    "area_code": "201",
    "place_name": "Essen",
    "phone_block_from": "1885000",
    "phone_block_to": "1885999",
    "block_size": "1000",
    "phone_provider": "STROTH"
  },
  {
    "area_code": "201",
    "place_name": "Essen",
    "phone_block_from": "1886000",
    "phone_block_to": "1886999",
    "block_size": "1000",
    "phone_provider": "STROTH"
  },
  {
    "area_code": "201",
    "place_name": "Essen",
    "phone_block_from": "1887000",
    "phone_block_to": "1887999",
    "block_size": "1000",
    "phone_provider": "STROTH"
  },
  {
    "area_code": "201",
    "place_name": "Essen",
    "phone_block_from": "1888000",
    "phone_block_to": "1888999",
    "block_size": "1000",
    "phone_provider": "1u1VersatelD"
  },
  {
    "area_code": "201",
    "place_name": "Essen",
    "phone_block_from": "1889000",
    "phone_block_to": "1889999",
    "block_size": "1000",
    "phone_provider": "1u1VersatelD"
  },
  {
    "area_code": "201",
    "place_name": "Essen",
    "phone_block_from": "1891000",
    "phone_block_to": "1891999",
    "block_size": "1000",
    "phone_provider": "Telekom"
  },
  {
    "area_code": "201",
    "place_name": "Essen",
    "phone_block_from": "1892000",
    "phone_block_to": "1892999",
    "block_size": "1000",
    "phone_provider": "Telekom"
  },
  {
    "area_code": "201",
    "place_name": "Essen",
    "phone_block_from": "2010000",
    "phone_block_to": "2010999",
    "block_size": "1000",
    "phone_provider": "Telekom"
  },
  {
    "area_code": "201",
    "place_name": "Essen",
    "phone_block_from": "2011000",
    "phone_block_to": "2011999",
    "block_size": "1000",
    "phone_provider": "Telekom"
  },
  {
    "area_code": "201",
    "place_name": "Essen",
    "phone_block_from": "2012000",
    "phone_block_to": "2012999",
    "block_size": "1000",
    "phone_provider": "Telekom"
  },
  {
    "area_code": "201",
    "place_name": "Essen",
    "phone_block_from": "2013000",
    "phone_block_to": "2013999",
    "block_size": "1000",
    "phone_provider": "Telekom"
  },
  {
    "area_code": "201",
    "place_name": "Essen",
    "phone_block_from": "2014000",
    "phone_block_to": "2014999",
    "block_size": "1000",
    "phone_provider": "Telekom"
  },
  {
    "area_code": "201",
    "place_name": "Essen",
    "phone_block_from": "2015000",
    "phone_block_to": "2015999",
    "block_size": "1000",
    "phone_provider": "Telekom"
  },
  {
    "area_code": "201",
    "place_name": "Essen",
    "phone_block_from": "2016000",
    "phone_block_to": "2016999",
    "block_size": "1000",
    "phone_provider": "Telekom"
  },
  {
    "area_code": "201",
    "place_name": "Essen",
    "phone_block_from": "2017000",
    "phone_block_to": "2017999",
    "block_size": "1000",
    "phone_provider": "Telekom"
  },
  {
    "area_code": "201",
    "place_name": "Essen",
    "phone_block_from": "2018000",
    "phone_block_to": "2018999",
    "block_size": "1000",
    "phone_provider": "Telekom"
  },
  {
    "area_code": "201",
    "place_name": "Essen",
    "phone_block_from": "2060000",
    "phone_block_to": "2060999",
    "block_size": "1000",
    "phone_provider": "Telefonica"
  },
  {
    "area_code": "201",
    "place_name": "Essen",
    "phone_block_from": "2150000",
    "phone_block_to": "2150999",
    "block_size": "1000",
    "phone_provider": "01051"
  },
  {
    "area_code": "201",
    "place_name": "Essen",
    "phone_block_from": "2160000",
    "phone_block_to": "2160999",
    "block_size": "1000",
    "phone_provider": "01051"
  },
  {
    "area_code": "201",
    "place_name": "Essen",
    "phone_block_from": "2176000",
    "phone_block_to": "2176999",
    "block_size": "1000",
    "phone_provider": "Telekom"
  },
  {
    "area_code": "201",
    "place_name": "Essen",
    "phone_block_from": "2177000",
    "phone_block_to": "2177999",
    "block_size": "1000",
    "phone_provider": "Telekom"
  },
  {
    "area_code": "201",
    "place_name": "Essen",
    "phone_block_from": "2196000",
    "phone_block_to": "2196999",
    "block_size": "1000",
    "phone_provider": "BT"
  },
  {
    "area_code": "201",
    "place_name": "Essen",
    "phone_block_from": "2198000",
    "phone_block_to": "2198999",
    "block_size": "1000",
    "phone_provider": "BT"
  },
  {
    "area_code": "201",
    "place_name": "Essen",
    "phone_block_from": "2199000",
    "phone_block_to": "2199999",
    "block_size": "1000",
    "phone_provider": "BT"
  },
  {
    "area_code": "201",
    "place_name": "Essen",
    "phone_block_from": "2200000",
    "phone_block_to": "2200999",
    "block_size": "1000",
    "phone_provider": "Telekom"
  },
  {
    "area_code": "201",
    "place_name": "Essen",
    "phone_block_from": "2202000",
    "phone_block_to": "2202999",
    "block_size": "1000",
    "phone_provider": "Telekom"
  },
  {
    "area_code": "201",
    "place_name": "Essen",
    "phone_block_from": "2203000",
    "phone_block_to": "2203999",
    "block_size": "1000",
    "phone_provider": "Telekom"
  },
  {
    "area_code": "201",
    "place_name": "Essen",
    "phone_block_from": "2204000",
    "phone_block_to": "2204999",
    "block_size": "1000",
    "phone_provider": "Telekom"
  },
  {
    "area_code": "201",
    "place_name": "Essen",
    "phone_block_from": "2208000",
    "phone_block_to": "2208999",
    "block_size": "1000",
    "phone_provider": "Telekom"
  },
  {
    "area_code": "201",
    "place_name": "Essen",
    "phone_block_from": "2209000",
    "phone_block_to": "2209999",
    "block_size": "1000",
    "phone_provider": "Telekom"
  },
  {
    "area_code": "201",
    "place_name": "Essen",
    "phone_block_from": "2379000",
    "phone_block_to": "2379999",
    "block_size": "1000",
    "phone_provider": "Telekom"
  },
  {
    "area_code": "201",
    "place_name": "Essen",
    "phone_block_from": "2400000",
    "phone_block_to": "2400999",
    "block_size": "1000",
    "phone_provider": "Telekom"
  },
  {
    "area_code": "201",
    "place_name": "Essen",
    "phone_block_from": "2403000",
    "phone_block_to": "2403999",
    "block_size": "1000",
    "phone_provider": "Telekom"
  },
  {
    "area_code": "201",
    "place_name": "Essen",
    "phone_block_from": "2405000",
    "phone_block_to": "2405999",
    "block_size": "1000",
    "phone_provider": "Telekom"
  },
  {
    "area_code": "201",
    "place_name": "Essen",
    "phone_block_from": "2409000",
    "phone_block_to": "2409999",
    "block_size": "1000",
    "phone_provider": "Telekom"
  },
  {
    "area_code": "201",
    "place_name": "Essen",
    "phone_block_from": "2420000",
    "phone_block_to": "2420999",
    "block_size": "1000",
    "phone_provider": "Telekom"
  },
  {
    "area_code": "201",
    "place_name": "Essen",
    "phone_block_from": "2421000",
    "phone_block_to": "2421999",
    "block_size": "1000",
    "phone_provider": "Telekom"
  },
  {
    "area_code": "201",
    "place_name": "Essen",
    "phone_block_from": "2426000",
    "phone_block_to": "2426999",
    "block_size": "1000",
    "phone_provider": "Telekom"
  },
  {
    "area_code": "201",
    "place_name": "Essen",
    "phone_block_from": "2447000",
    "phone_block_to": "2447999",
    "block_size": "1000",
    "phone_provider": "Telekom"
  },
  {
    "area_code": "201",
    "place_name": "Essen",
    "phone_block_from": "2448000",
    "phone_block_to": "2448999",
    "block_size": "1000",
    "phone_provider": "Telekom"
  },
  {
    "area_code": "201",
    "place_name": "Essen",
    "phone_block_from": "2449000",
    "phone_block_to": "2449999",
    "block_size": "1000",
    "phone_provider": "Telekom"
  },
  {
    "area_code": "201",
    "place_name": "Essen",
    "phone_block_from": "2460000",
    "phone_block_to": "2460999",
    "block_size": "1000",
    "phone_provider": "Telekom"
  },
  {
    "area_code": "201",
    "place_name": "Essen",
    "phone_block_from": "2461000",
    "phone_block_to": "2461999",
    "block_size": "1000",
    "phone_provider": "Telekom"
  },
  {
    "area_code": "201",
    "place_name": "Essen",
    "phone_block_from": "2462000",
    "phone_block_to": "2462999",
    "block_size": "1000",
    "phone_provider": "Telekom"
  },
  {
    "area_code": "201",
    "place_name": "Essen",
    "phone_block_from": "2463000",
    "phone_block_to": "2463999",
    "block_size": "1000",
    "phone_provider": "Telekom"
  },
  {
    "area_code": "201",
    "place_name": "Essen",
    "phone_block_from": "2464000",
    "phone_block_to": "2464999",
    "block_size": "1000",
    "phone_provider": "Telekom"
  },
  {
    "area_code": "201",
    "place_name": "Essen",
    "phone_block_from": "2465000",
    "phone_block_to": "2465999",
    "block_size": "1000",
    "phone_provider": "Telekom"
  },
  {
    "area_code": "201",
    "place_name": "Essen",
    "phone_block_from": "2466000",
    "phone_block_to": "2466999",
    "block_size": "1000",
    "phone_provider": "Telekom"
  },
  {
    "area_code": "201",
    "place_name": "Essen",
    "phone_block_from": "2467000",
    "phone_block_to": "2467999",
    "block_size": "1000",
    "phone_provider": "1u1VersatelD"
  },
  {
    "area_code": "201",
    "place_name": "Essen",
    "phone_block_from": "2468000",
    "phone_block_to": "2468999",
    "block_size": "1000",
    "phone_provider": "1u1VersatelD"
  },
  {
    "area_code": "201",
    "place_name": "Essen",
    "phone_block_from": "2469000",
    "phone_block_to": "2469999",
    "block_size": "1000",
    "phone_provider": "1u1VersatelD"
  },
  {
    "area_code": "201",
    "place_name": "Essen",
    "phone_block_from": "2481000",
    "phone_block_to": "2481999",
    "block_size": "1000",
    "phone_provider": "Telekom"
  },
  {
    "area_code": "201",
    "place_name": "Essen",
    "phone_block_from": "2482000",
    "phone_block_to": "2482999",
    "block_size": "1000",
    "phone_provider": "Telekom"
  },
  {
    "area_code": "201",
    "place_name": "Essen",
    "phone_block_from": "2484000",
    "phone_block_to": "2484999",
    "block_size": "1000",
    "phone_provider": "Telekom"
  },
  {
    "area_code": "201",
    "place_name": "Essen",
    "phone_block_from": "2485000",
    "phone_block_to": "2485999",
    "block_size": "1000",
    "phone_provider": "Telekom"
  },
  {
    "area_code": "201",
    "place_name": "Essen",
    "phone_block_from": "2486000",
    "phone_block_to": "2486999",
    "block_size": "1000",
    "phone_provider": "Telekom"
  },
  {
    "area_code": "201",
    "place_name": "Essen",
    "phone_block_from": "2487000",
    "phone_block_to": "2487999",
    "block_size": "1000",
    "phone_provider": "Telekom"
  },
  {
    "area_code": "201",
    "place_name": "Essen",
    "phone_block_from": "2488000",
    "phone_block_to": "2488999",
    "block_size": "1000",
    "phone_provider": "Telekom"
  },
  {
    "area_code": "201",
    "place_name": "Essen",
    "phone_block_from": "2489000",
    "phone_block_to": "2489999",
    "block_size": "1000",
    "phone_provider": "Telekom"
  },
  {
    "area_code": "201",
    "place_name": "Essen",
    "phone_block_from": "2587000",
    "phone_block_to": "2587999",
    "block_size": "1000",
    "phone_provider": "1u1VersatelD"
  },
  {
    "area_code": "201",
    "place_name": "Essen",
    "phone_block_from": "2590000",
    "phone_block_to": "2590999",
    "block_size": "1000",
    "phone_provider": "Telefonica"
  },
  {
    "area_code": "201",
    "place_name": "Essen",
    "phone_block_from": "2662000",
    "phone_block_to": "2662999",
    "block_size": "1000",
    "phone_provider": "Telekom"
  },
  {
    "area_code": "201",
    "place_name": "Essen",
    "phone_block_from": "2667000",
    "phone_block_to": "2667999",
    "block_size": "1000",
    "phone_provider": "Telekom"
  },
  {
    "area_code": "201",
    "place_name": "Essen",
    "phone_block_from": "2697000",
    "phone_block_to": "2697999",
    "block_size": "1000",
    "phone_provider": "Telekom"
  },
  {
    "area_code": "201",
    "place_name": "Essen",
    "phone_block_from": "2698000",
    "phone_block_to": "2698999",
    "block_size": "1000",
    "phone_provider": "Telekom"
  },
  {
    "area_code": "201",
    "place_name": "Essen",
    "phone_block_from": "2699000",
    "phone_block_to": "2699999",
    "block_size": "1000",
    "phone_provider": "Telekom"
  },
  {
    "area_code": "201",
    "place_name": "Essen",
    "phone_block_from": "2710000",
    "phone_block_to": "2710999",
    "block_size": "1000",
    "phone_provider": "VodafoneNRW"
  },
  {
    "area_code": "201",
    "place_name": "Essen",
    "phone_block_from": "2787000",
    "phone_block_to": "2787999",
    "block_size": "1000",
    "phone_provider": "Telekom"
  },
  {
    "area_code": "201",
    "place_name": "Essen",
    "phone_block_from": "2789000",
    "phone_block_to": "2789999",
    "block_size": "1000",
    "phone_provider": "Telekom"
  },
  {
    "area_code": "201",
    "place_name": "Essen",
    "phone_block_from": "2790000",
    "phone_block_to": "2790999",
    "block_size": "1000",
    "phone_provider": "Telekom"
  },
  {
    "area_code": "201",
    "place_name": "Essen",
    "phone_block_from": "2793000",
    "phone_block_to": "2793999",
    "block_size": "1000",
    "phone_provider": "Telekom"
  },
  {
    "area_code": "201",
    "place_name": "Essen",
    "phone_block_from": "2795000",
    "phone_block_to": "2795999",
    "block_size": "1000",
    "phone_provider": "Telekom"
  },
  {
    "area_code": "201",
    "place_name": "Essen",
    "phone_block_from": "2796000",
    "phone_block_to": "2796999",
    "block_size": "1000",
    "phone_provider": "Telekom"
  },
  {
    "area_code": "201",
    "place_name": "Essen",
    "phone_block_from": "2798000",
    "phone_block_to": "2798999",
    "block_size": "1000",
    "phone_provider": "Telekom"
  },
  {
    "area_code": "201",
    "place_name": "Essen",
    "phone_block_from": "2799000",
    "phone_block_to": "2799999",
    "block_size": "1000",
    "phone_provider": "Telekom"
  },
  {
    "area_code": "201",
    "place_name": "Essen",
    "phone_block_from": "2809000",
    "phone_block_to": "2809999",
    "block_size": "1000",
    "phone_provider": "Telekom"
  },
  {
    "area_code": "201",
    "place_name": "Essen",
    "phone_block_from": "2881000",
    "phone_block_to": "2881999",
    "block_size": "1000",
    "phone_provider": "Telefonica"
  },
  {
    "area_code": "201",
    "place_name": "Essen",
    "phone_block_from": "2894000",
    "phone_block_to": "2894999",
    "block_size": "1000",
    "phone_provider": "Telekom"
  },
  {
    "area_code": "201",
    "place_name": "Essen",
    "phone_block_from": "2895000",
    "phone_block_to": "2895999",
    "block_size": "1000",
    "phone_provider": "Telekom"
  },
  {
    "area_code": "201",
    "place_name": "Essen",
    "phone_block_from": "2896000",
    "phone_block_to": "2896999",
    "block_size": "1000",
    "phone_provider": "Telekom"
  },
  {
    "area_code": "201",
    "place_name": "Essen",
    "phone_block_from": "2897000",
    "phone_block_to": "2897999",
    "block_size": "1000",
    "phone_provider": "Telekom"
  },
  {
    "area_code": "201",
    "place_name": "Essen",
    "phone_block_from": "2898000",
    "phone_block_to": "2898999",
    "block_size": "1000",
    "phone_provider": "Telekom"
  },
  {
    "area_code": "201",
    "place_name": "Essen",
    "phone_block_from": "2899000",
    "phone_block_to": "2899999",
    "block_size": "1000",
    "phone_provider": "Telekom"
  },
  {
    "area_code": "201",
    "place_name": "Essen",
    "phone_block_from": "2939000",
    "phone_block_to": "2939999",
    "block_size": "1000",
    "phone_provider": "Telekom"
  },
  {
    "area_code": "201",
    "place_name": "Essen",
    "phone_block_from": "2942000",
    "phone_block_to": "2942999",
    "block_size": "1000",
    "phone_provider": "Telekom"
  },
  {
    "area_code": "201",
    "place_name": "Essen",
    "phone_block_from": "2943000",
    "phone_block_to": "2943999",
    "block_size": "1000",
    "phone_provider": "Telekom"
  },
  {
    "area_code": "201",
    "place_name": "Essen",
    "phone_block_from": "2944000",
    "phone_block_to": "2944999",
    "block_size": "1000",
    "phone_provider": "Telekom"
  },
  {
    "area_code": "201",
    "place_name": "Essen",
    "phone_block_from": "2946000",
    "phone_block_to": "2946999",
    "block_size": "1000",
    "phone_provider": "Telekom"
  },
  {
    "area_code": "201",
    "place_name": "Essen",
    "phone_block_from": "2959000",
    "phone_block_to": "2959999",
    "block_size": "1000",
    "phone_provider": "broadnet"
  },
  {
    "area_code": "201",
    "place_name": "Essen",
    "phone_block_from": "2968000",
    "phone_block_to": "2968999",
    "block_size": "1000",
    "phone_provider": "1u1VersatelD"
  },
  {
    "area_code": "201",
    "place_name": "Essen",
    "phone_block_from": "2969000",
    "phone_block_to": "2969999",
    "block_size": "1000",
    "phone_provider": "1u1VersatelD"
  },
  {
    "area_code": "201",
    "place_name": "Essen",
    "phone_block_from": "2981000",
    "phone_block_to": "2981999",
    "block_size": "1000",
    "phone_provider": "1u1VersatelD"
  },
  {
    "area_code": "201",
    "place_name": "Essen",
    "phone_block_from": "2987000",
    "phone_block_to": "2987999",
    "block_size": "1000",
    "phone_provider": "1u1VersatelD"
  },
  {
    "area_code": "201",
    "place_name": "Essen",
    "phone_block_from": "2988000",
    "phone_block_to": "2988999",
    "block_size": "1000",
    "phone_provider": "1u1VersatelD"
  },
  {
    "area_code": "201",
    "place_name": "Essen",
    "phone_block_from": "2993000",
    "phone_block_to": "2993999",
    "block_size": "1000",
    "phone_provider": "BT"
  },
  {
    "area_code": "201",
    "place_name": "Essen",
    "phone_block_from": "2994000",
    "phone_block_to": "2994999",
    "block_size": "1000",
    "phone_provider": "BT"
  },
  {
    "area_code": "201",
    "place_name": "Essen",
    "phone_block_from": "2997000",
    "phone_block_to": "2997999",
    "block_size": "1000",
    "phone_provider": "BT"
  },
  {
    "area_code": "201",
    "place_name": "Essen",
    "phone_block_from": "3101000",
    "phone_block_to": "3101999",
    "block_size": "1000",
    "phone_provider": "Telekom"
  },
  {
    "area_code": "201",
    "place_name": "Essen",
    "phone_block_from": "3102000",
    "phone_block_to": "3102999",
    "block_size": "1000",
    "phone_provider": "Telekom"
  },
  {
    "area_code": "201",
    "place_name": "Essen",
    "phone_block_from": "3104000",
    "phone_block_to": "3104999",
    "block_size": "1000",
    "phone_provider": "Telekom"
  },
  {
    "area_code": "201",
    "place_name": "Essen",
    "phone_block_from": "3107000",
    "phone_block_to": "3107999",
    "block_size": "1000",
    "phone_provider": "Telekom"
  },
  {
    "area_code": "201",
    "place_name": "Essen",
    "phone_block_from": "3109000",
    "phone_block_to": "3109999",
    "block_size": "1000",
    "phone_provider": "Telekom"
  },
  {
    "area_code": "201",
    "place_name": "Essen",
    "phone_block_from": "3162000",
    "phone_block_to": "3162999",
    "block_size": "1000",
    "phone_provider": "Telekom"
  },
  {
    "area_code": "201",
    "place_name": "Essen",
    "phone_block_from": "3163000",
    "phone_block_to": "3163999",
    "block_size": "1000",
    "phone_provider": "Telekom"
  },
  {
    "area_code": "201",
    "place_name": "Essen",
    "phone_block_from": "3164000",
    "phone_block_to": "3164999",
    "block_size": "1000",
    "phone_provider": "Telekom"
  },
  {
    "area_code": "201",
    "place_name": "Essen",
    "phone_block_from": "3165000",
    "phone_block_to": "3165999",
    "block_size": "1000",
    "phone_provider": "Telekom"
  },
  {
    "area_code": "201",
    "place_name": "Essen",
    "phone_block_from": "3166000",
    "phone_block_to": "3166999",
    "block_size": "1000",
    "phone_provider": "Telekom"
  },
  {
    "area_code": "201",
    "place_name": "Essen",
    "phone_block_from": "3167000",
    "phone_block_to": "3167999",
    "block_size": "1000",
    "phone_provider": "Telekom"
  },
  {
    "area_code": "201",
    "place_name": "Essen",
    "phone_block_from": "3168000",
    "phone_block_to": "3168999",
    "block_size": "1000",
    "phone_provider": "Telekom"
  },
  {
    "area_code": "201",
    "place_name": "Essen",
    "phone_block_from": "3169000",
    "phone_block_to": "3169999",
    "block_size": "1000",
    "phone_provider": "Telekom"
  },
  {
    "area_code": "201",
    "place_name": "Essen",
    "phone_block_from": "3177000",
    "phone_block_to": "3177999",
    "block_size": "1000",
    "phone_provider": "BT"
  },
  {
    "area_code": "201",
    "place_name": "Essen",
    "phone_block_from": "3186000",
    "phone_block_to": "3186999",
    "block_size": "1000",
    "phone_provider": "1u1VersatelD"
  },
  {
    "area_code": "201",
    "place_name": "Essen",
    "phone_block_from": "3190000",
    "phone_block_to": "3190999",
    "block_size": "1000",
    "phone_provider": "Telekom"
  },
  {
    "area_code": "201",
    "place_name": "Essen",
    "phone_block_from": "3191000",
    "phone_block_to": "3191999",
    "block_size": "1000",
    "phone_provider": "Telekom"
  },
  {
    "area_code": "201",
    "place_name": "Essen",
    "phone_block_from": "3193000",
    "phone_block_to": "3193999",
    "block_size": "1000",
    "phone_provider": "Telekom"
  },
  {
    "area_code": "201",
    "place_name": "Essen",
    "phone_block_from": "3194000",
    "phone_block_to": "3194999",
    "block_size": "1000",
    "phone_provider": "Telekom"
  },
  {
    "area_code": "201",
    "place_name": "Essen",
    "phone_block_from": "3195000",
    "phone_block_to": "3195999",
    "block_size": "1000",
    "phone_provider": "Telekom"
  },
  {
    "area_code": "201",
    "place_name": "Essen",
    "phone_block_from": "3196000",
    "phone_block_to": "3196999",
    "block_size": "1000",
    "phone_provider": "Telekom"
  },
  {
    "area_code": "201",
    "place_name": "Essen",
    "phone_block_from": "3197000",
    "phone_block_to": "3197999",
    "block_size": "1000",
    "phone_provider": "Telekom"
  },
  {
    "area_code": "201",
    "place_name": "Essen",
    "phone_block_from": "3198000",
    "phone_block_to": "3198999",
    "block_size": "1000",
    "phone_provider": "Telekom"
  },
  {
    "area_code": "201",
    "place_name": "Essen",
    "phone_block_from": "3199000",
    "phone_block_to": "3199999",
    "block_size": "1000",
    "phone_provider": "Telekom"
  },
  {
    "area_code": "201",
    "place_name": "Essen",
    "phone_block_from": "3201000",
    "phone_block_to": "3201999",
    "block_size": "1000",
    "phone_provider": "Telekom"
  },
  {
    "area_code": "201",
    "place_name": "Essen",
    "phone_block_from": "3203000",
    "phone_block_to": "3203999",
    "block_size": "1000",
    "phone_provider": "Telekom"
  },
  {
    "area_code": "201",
    "place_name": "Essen",
    "phone_block_from": "3204000",
    "phone_block_to": "3204999",
    "block_size": "1000",
    "phone_provider": "Telekom"
  },
  {
    "area_code": "201",
    "place_name": "Essen",
    "phone_block_from": "3205000",
    "phone_block_to": "3205999",
    "block_size": "1000",
    "phone_provider": "Telekom"
  },
  {
    "area_code": "201",
    "place_name": "Essen",
    "phone_block_from": "3207000",
    "phone_block_to": "3207999",
    "block_size": "1000",
    "phone_provider": "Telekom"
  },
  {
    "area_code": "201",
    "place_name": "Essen",
    "phone_block_from": "3300000",
    "phone_block_to": "3300999",
    "block_size": "1000",
    "phone_provider": "Vodafone"
  },
  {
    "area_code": "201",
    "place_name": "Essen",
    "phone_block_from": "3301000",
    "phone_block_to": "3301999",
    "block_size": "1000",
    "phone_provider": "Vodafone"
  },
  {
    "area_code": "201",
    "place_name": "Essen",
    "phone_block_from": "3302000",
    "phone_block_to": "3302999",
    "block_size": "1000",
    "phone_provider": "Vodafone"
  },
  {
    "area_code": "201",
    "place_name": "Essen",
    "phone_block_from": "3303000",
    "phone_block_to": "3303999",
    "block_size": "1000",
    "phone_provider": "Vodafone"
  },
  {
    "area_code": "201",
    "place_name": "Essen",
    "phone_block_from": "3304000",
    "phone_block_to": "3304999",
    "block_size": "1000",
    "phone_provider": "Vodafone"
  },
  {
    "area_code": "201",
    "place_name": "Essen",
    "phone_block_from": "3305000",
    "phone_block_to": "3305999",
    "block_size": "1000",
    "phone_provider": "Vodafone"
  },
  {
    "area_code": "201",
    "place_name": "Essen",
    "phone_block_from": "3306000",
    "phone_block_to": "3306999",
    "block_size": "1000",
    "phone_provider": "Vodafone"
  },
  {
    "area_code": "201",
    "place_name": "Essen",
    "phone_block_from": "3307000",
    "phone_block_to": "3307999",
    "block_size": "1000",
    "phone_provider": "Vodafone"
  },
  {
    "area_code": "201",
    "place_name": "Essen",
    "phone_block_from": "3308000",
    "phone_block_to": "3308999",
    "block_size": "1000",
    "phone_provider": "Vodafone"
  },
  {
    "area_code": "201",
    "place_name": "Essen",
    "phone_block_from": "3309000",
    "phone_block_to": "3309999",
    "block_size": "1000",
    "phone_provider": "Vodafone"
  },
  {
    "area_code": "201",
    "place_name": "Essen",
    "phone_block_from": "3328000",
    "phone_block_to": "3328999",
    "block_size": "1000",
    "phone_provider": "1u1VersatelD"
  },
  {
    "area_code": "201",
    "place_name": "Essen",
    "phone_block_from": "3329000",
    "phone_block_to": "3329999",
    "block_size": "1000",
    "phone_provider": "1u1VersatelD"
  },
  {
    "area_code": "201",
    "place_name": "Essen",
    "phone_block_from": "3600000",
    "phone_block_to": "3600999",
    "block_size": "1000",
    "phone_provider": "Telekom"
  },
  {
    "area_code": "201",
    "place_name": "Essen",
    "phone_block_from": "3601000",
    "phone_block_to": "3601999",
    "block_size": "1000",
    "phone_provider": "Telekom"
  },
  {
    "area_code": "201",
    "place_name": "Essen",
    "phone_block_from": "3602000",
    "phone_block_to": "3602999",
    "block_size": "1000",
    "phone_provider": "Telekom"
  },
  {
    "area_code": "201",
    "place_name": "Essen",
    "phone_block_from": "3603000",
    "phone_block_to": "3603999",
    "block_size": "1000",
    "phone_provider": "Telekom"
  },
  {
    "area_code": "201",
    "place_name": "Essen",
    "phone_block_from": "3606000",
    "phone_block_to": "3606999",
    "block_size": "1000",
    "phone_provider": "Telekom"
  },
  {
    "area_code": "201",
    "place_name": "Essen",
    "phone_block_from": "3610000",
    "phone_block_to": "3610999",
    "block_size": "1000",
    "phone_provider": "Telekom"
  },
  {
    "area_code": "201",
    "place_name": "Essen",
    "phone_block_from": "3612000",
    "phone_block_to": "3612999",
    "block_size": "1000",
    "phone_provider": "Telekom"
  },
  {
    "area_code": "201",
    "place_name": "Essen",
    "phone_block_from": "3613000",
    "phone_block_to": "3613999",
    "block_size": "1000",
    "phone_provider": "Telekom"
  },
  {
    "area_code": "201",
    "place_name": "Essen",
    "phone_block_from": "3614000",
    "phone_block_to": "3614999",
    "block_size": "1000",
    "phone_provider": "Telekom"
  },
  {
    "area_code": "201",
    "place_name": "Essen",
    "phone_block_from": "3615000",
    "phone_block_to": "3615999",
    "block_size": "1000",
    "phone_provider": "Telekom"
  },
  {
    "area_code": "201",
    "place_name": "Essen",
    "phone_block_from": "3616000",
    "phone_block_to": "3616999",
    "block_size": "1000",
    "phone_provider": "Telekom"
  },
  {
    "area_code": "201",
    "place_name": "Essen",
    "phone_block_from": "3618000",
    "phone_block_to": "3618999",
    "block_size": "1000",
    "phone_provider": "Telekom"
  },
  {
    "area_code": "201",
    "place_name": "Essen",
    "phone_block_from": "3619000",
    "phone_block_to": "3619999",
    "block_size": "1000",
    "phone_provider": "Telekom"
  },
  {
    "area_code": "201",
    "place_name": "Essen",
    "phone_block_from": "3620000",
    "phone_block_to": "3620999",
    "block_size": "1000",
    "phone_provider": "Telekom"
  },
  {
    "area_code": "201",
    "place_name": "Essen",
    "phone_block_from": "3621000",
    "phone_block_to": "3621999",
    "block_size": "1000",
    "phone_provider": "Telekom"
  },
  {
    "area_code": "201",
    "place_name": "Essen",
    "phone_block_from": "3622000",
    "phone_block_to": "3622999",
    "block_size": "1000",
    "phone_provider": "Telekom"
  },
  {
    "area_code": "201",
    "place_name": "Essen",
    "phone_block_from": "3623000",
    "phone_block_to": "3623999",
    "block_size": "1000",
    "phone_provider": "Telekom"
  },
  {
    "area_code": "201",
    "place_name": "Essen",
    "phone_block_from": "3624000",
    "phone_block_to": "3624999",
    "block_size": "1000",
    "phone_provider": "Telekom"
  },
  {
    "area_code": "201",
    "place_name": "Essen",
    "phone_block_from": "3625000",
    "phone_block_to": "3625999",
    "block_size": "1000",
    "phone_provider": "Telekom"
  },
  {
    "area_code": "201",
    "place_name": "Essen",
    "phone_block_from": "3626000",
    "phone_block_to": "3626999",
    "block_size": "1000",
    "phone_provider": "Telekom"
  },
  {
    "area_code": "201",
    "place_name": "Essen",
    "phone_block_from": "3627000",
    "phone_block_to": "3627999",
    "block_size": "1000",
    "phone_provider": "Telekom"
  },
  {
    "area_code": "201",
    "place_name": "Essen",
    "phone_block_from": "3628000",
    "phone_block_to": "3628999",
    "block_size": "1000",
    "phone_provider": "Telekom"
  },
  {
    "area_code": "201",
    "place_name": "Essen",
    "phone_block_from": "3629000",
    "phone_block_to": "3629999",
    "block_size": "1000",
    "phone_provider": "Telekom"
  },
  {
    "area_code": "201",
    "place_name": "Essen",
    "phone_block_from": "3630000",
    "phone_block_to": "3630999",
    "block_size": "1000",
    "phone_provider": "Telekom"
  },
  {
    "area_code": "201",
    "place_name": "Essen",
    "phone_block_from": "3631000",
    "phone_block_to": "3631999",
    "block_size": "1000",
    "phone_provider": "Telekom"
  },
  {
    "area_code": "201",
    "place_name": "Essen",
    "phone_block_from": "3632000",
    "phone_block_to": "3632999",
    "block_size": "1000",
    "phone_provider": "Telekom"
  },
  {
    "area_code": "201",
    "place_name": "Essen",
    "phone_block_from": "3633000",
    "phone_block_to": "3633999",
    "block_size": "1000",
    "phone_provider": "Telekom"
  },
  {
    "area_code": "201",
    "place_name": "Essen",
    "phone_block_from": "3634000",
    "phone_block_to": "3634999",
    "block_size": "1000",
    "phone_provider": "Telekom"
  },
  {
    "area_code": "201",
    "place_name": "Essen",
    "phone_block_from": "3635000",
    "phone_block_to": "3635999",
    "block_size": "1000",
    "phone_provider": "Telekom"
  },
  {
    "area_code": "201",
    "place_name": "Essen",
    "phone_block_from": "3636000",
    "phone_block_to": "3636999",
    "block_size": "1000",
    "phone_provider": "Telekom"
  },
  {
    "area_code": "201",
    "place_name": "Essen",
    "phone_block_from": "3637000",
    "phone_block_to": "3637999",
    "block_size": "1000",
    "phone_provider": "Telekom"
  },
  {
    "area_code": "201",
    "place_name": "Essen",
    "phone_block_from": "3638000",
    "phone_block_to": "3638999",
    "block_size": "1000",
    "phone_provider": "Telekom"
  },
  {
    "area_code": "201",
    "place_name": "Essen",
    "phone_block_from": "3639000",
    "phone_block_to": "3639999",
    "block_size": "1000",
    "phone_provider": "Telekom"
  },
  {
    "area_code": "201",
    "place_name": "Essen",
    "phone_block_from": "3641000",
    "phone_block_to": "3641999",
    "block_size": "1000",
    "phone_provider": "Telekom"
  },
  {
    "area_code": "201",
    "place_name": "Essen",
    "phone_block_from": "3642000",
    "phone_block_to": "3642999",
    "block_size": "1000",
    "phone_provider": "Telekom"
  },
  {
    "area_code": "201",
    "place_name": "Essen",
    "phone_block_from": "3643000",
    "phone_block_to": "3643999",
    "block_size": "1000",
    "phone_provider": "Telekom"
  },
  {
    "area_code": "201",
    "place_name": "Essen",
    "phone_block_from": "3644000",
    "phone_block_to": "3644999",
    "block_size": "1000",
    "phone_provider": "Telekom"
  },
  {
    "area_code": "201",
    "place_name": "Essen",
    "phone_block_from": "3645000",
    "phone_block_to": "3645999",
    "block_size": "1000",
    "phone_provider": "Telekom"
  },
  {
    "area_code": "201",
    "place_name": "Essen",
    "phone_block_from": "3646000",
    "phone_block_to": "3646999",
    "block_size": "1000",
    "phone_provider": "Telekom"
  },
  {
    "area_code": "201",
    "place_name": "Essen",
    "phone_block_from": "3650000",
    "phone_block_to": "3650999",
    "block_size": "1000",
    "phone_provider": "Telekom"
  },
  {
    "area_code": "201",
    "place_name": "Essen",
    "phone_block_from": "3651000",
    "phone_block_to": "3651999",
    "block_size": "1000",
    "phone_provider": "Telekom"
  },
  {
    "area_code": "201",
    "place_name": "Essen",
    "phone_block_from": "3652000",
    "phone_block_to": "3652999",
    "block_size": "1000",
    "phone_provider": "Telekom"
  },
  {
    "area_code": "201",
    "place_name": "Essen",
    "phone_block_from": "3653000",
    "phone_block_to": "3653999",
    "block_size": "1000",
    "phone_provider": "Telekom"
  },
  {
    "area_code": "201",
    "place_name": "Essen",
    "phone_block_from": "3654000",
    "phone_block_to": "3654999",
    "block_size": "1000",
    "phone_provider": "Telekom"
  },
  {
    "area_code": "201",
    "place_name": "Essen",
    "phone_block_from": "3655000",
    "phone_block_to": "3655999",
    "block_size": "1000",
    "phone_provider": "Telekom"
  },
  {
    "area_code": "201",
    "place_name": "Essen",
    "phone_block_from": "3656000",
    "phone_block_to": "3656999",
    "block_size": "1000",
    "phone_provider": "Telekom"
  },
  {
    "area_code": "201",
    "place_name": "Essen",
    "phone_block_from": "3657000",
    "phone_block_to": "3657999",
    "block_size": "1000",
    "phone_provider": "Telekom"
  },
  {
    "area_code": "201",
    "place_name": "Essen",
    "phone_block_from": "3658000",
    "phone_block_to": "3658999",
    "block_size": "1000",
    "phone_provider": "Telekom"
  },
  {
    "area_code": "201",
    "place_name": "Essen",
    "phone_block_from": "3659000",
    "phone_block_to": "3659999",
    "block_size": "1000",
    "phone_provider": "Telekom"
  },
  {
    "area_code": "201",
    "place_name": "Essen",
    "phone_block_from": "3680000",
    "phone_block_to": "3680999",
    "block_size": "1000",
    "phone_provider": "Telekom"
  },
  {
    "area_code": "201",
    "place_name": "Essen",
    "phone_block_from": "3763000",
    "phone_block_to": "3763999",
    "block_size": "1000",
    "phone_provider": "Telefonica"
  },
  {
    "area_code": "201",
    "place_name": "Essen",
    "phone_block_from": "3764000",
    "phone_block_to": "3764999",
    "block_size": "1000",
    "phone_provider": "Telefonica"
  },
  {
    "area_code": "201",
    "place_name": "Essen",
    "phone_block_from": "3765000",
    "phone_block_to": "3765999",
    "block_size": "1000",
    "phone_provider": "Telefonica"
  },
  {
    "area_code": "201",
    "place_name": "Essen",
    "phone_block_from": "3766000",
    "phone_block_to": "3766999",
    "block_size": "1000",
    "phone_provider": "Telefonica"
  },
  {
    "area_code": "201",
    "place_name": "Essen",
    "phone_block_from": "3767000",
    "phone_block_to": "3767999",
    "block_size": "1000",
    "phone_provider": "Telefonica"
  },
  {
    "area_code": "201",
    "place_name": "Essen",
    "phone_block_from": "3768000",
    "phone_block_to": "3768999",
    "block_size": "1000",
    "phone_provider": "Telefonica"
  },
  {
    "area_code": "201",
    "place_name": "Essen",
    "phone_block_from": "3769000",
    "phone_block_to": "3769999",
    "block_size": "1000",
    "phone_provider": "Telefonica"
  },
  {
    "area_code": "201",
    "place_name": "Essen",
    "phone_block_from": "3770000",
    "phone_block_to": "3770999",
    "block_size": "1000",
    "phone_provider": "Telefonica"
  },
  {
    "area_code": "201",
    "place_name": "Essen",
    "phone_block_from": "3771000",
    "phone_block_to": "3771999",
    "block_size": "1000",
    "phone_provider": "Telefonica"
  },
  {
    "area_code": "201",
    "place_name": "Essen",
    "phone_block_from": "3772000",
    "phone_block_to": "3772999",
    "block_size": "1000",
    "phone_provider": "Telefonica"
  },
  {
    "area_code": "201",
    "place_name": "Essen",
    "phone_block_from": "3790000",
    "phone_block_to": "3790999",
    "block_size": "1000",
    "phone_provider": "Vodafone"
  },
  {
    "area_code": "201",
    "place_name": "Essen",
    "phone_block_from": "3791000",
    "phone_block_to": "3791999",
    "block_size": "1000",
    "phone_provider": "Vodafone"
  },
  {
    "area_code": "201",
    "place_name": "Essen",
    "phone_block_from": "3792000",
    "phone_block_to": "3792999",
    "block_size": "1000",
    "phone_provider": "Vodafone"
  },
  {
    "area_code": "201",
    "place_name": "Essen",
    "phone_block_from": "3793000",
    "phone_block_to": "3793999",
    "block_size": "1000",
    "phone_provider": "Vodafone"
  },
  {
    "area_code": "201",
    "place_name": "Essen",
    "phone_block_from": "3794000",
    "phone_block_to": "3794999",
    "block_size": "1000",
    "phone_provider": "Vodafone"
  },
  {
    "area_code": "201",
    "place_name": "Essen",
    "phone_block_from": "3795000",
    "phone_block_to": "3795999",
    "block_size": "1000",
    "phone_provider": "Vodafone"
  },
  {
    "area_code": "201",
    "place_name": "Essen",
    "phone_block_from": "3796000",
    "phone_block_to": "3796999",
    "block_size": "1000",
    "phone_provider": "Vodafone"
  },
  {
    "area_code": "201",
    "place_name": "Essen",
    "phone_block_from": "3797000",
    "phone_block_to": "3797999",
    "block_size": "1000",
    "phone_provider": "Vodafone"
  },
  {
    "area_code": "201",
    "place_name": "Essen",
    "phone_block_from": "3798000",
    "phone_block_to": "3798999",
    "block_size": "1000",
    "phone_provider": "Vodafone"
  },
  {
    "area_code": "201",
    "place_name": "Essen",
    "phone_block_from": "3799000",
    "phone_block_to": "3799999",
    "block_size": "1000",
    "phone_provider": "Vodafone"
  },
  {
    "area_code": "201",
    "place_name": "Essen",
    "phone_block_from": "3837000",
    "phone_block_to": "3837999",
    "block_size": "1000",
    "phone_provider": "1u1VersatelD"
  },
  {
    "area_code": "201",
    "place_name": "Essen",
    "phone_block_from": "3839000",
    "phone_block_to": "3839999",
    "block_size": "1000",
    "phone_provider": "1u1VersatelD"
  },
  {
    "area_code": "201",
    "place_name": "Essen",
    "phone_block_from": "3841000",
    "phone_block_to": "3841999",
    "block_size": "1000",
    "phone_provider": "Telekom"
  },
  {
    "area_code": "201",
    "place_name": "Essen",
    "phone_block_from": "3843000",
    "phone_block_to": "3843999",
    "block_size": "1000",
    "phone_provider": "Telekom"
  },
  {
    "area_code": "201",
    "place_name": "Essen",
    "phone_block_from": "3844000",
    "phone_block_to": "3844999",
    "block_size": "1000",
    "phone_provider": "Telekom"
  },
  {
    "area_code": "201",
    "place_name": "Essen",
    "phone_block_from": "3845000",
    "phone_block_to": "3845999",
    "block_size": "1000",
    "phone_provider": "Telekom"
  },
  {
    "area_code": "201",
    "place_name": "Essen",
    "phone_block_from": "3846000",
    "phone_block_to": "3846999",
    "block_size": "1000",
    "phone_provider": "Telekom"
  },
  {
    "area_code": "201",
    "place_name": "Essen",
    "phone_block_from": "3847000",
    "phone_block_to": "3847999",
    "block_size": "1000",
    "phone_provider": "Telekom"
  },
  {
    "area_code": "201",
    "place_name": "Essen",
    "phone_block_from": "3848000",
    "phone_block_to": "3848999",
    "block_size": "1000",
    "phone_provider": "Telekom"
  },
  {
    "area_code": "201",
    "place_name": "Essen",
    "phone_block_from": "3849000",
    "phone_block_to": "3849999",
    "block_size": "1000",
    "phone_provider": "Telekom"
  },
  {
    "area_code": "201",
    "place_name": "Essen",
    "phone_block_from": "4087000",
    "phone_block_to": "4087999",
    "block_size": "1000",
    "phone_provider": "Telekom"
  },
  {
    "area_code": "201",
    "place_name": "Essen",
    "phone_block_from": "4088000",
    "phone_block_to": "4088999",
    "block_size": "1000",
    "phone_provider": "Telekom"
  },
  {
    "area_code": "201",
    "place_name": "Essen",
    "phone_block_from": "4259000",
    "phone_block_to": "4259999",
    "block_size": "1000",
    "phone_provider": "1u1VersatelD"
  },
  {
    "area_code": "201",
    "place_name": "Essen",
    "phone_block_from": "4260000",
    "phone_block_to": "4260999",
    "block_size": "1000",
    "phone_provider": "1u1VersatelD"
  },
  {
    "area_code": "201",
    "place_name": "Essen",
    "phone_block_from": "4261000",
    "phone_block_to": "4261999",
    "block_size": "1000",
    "phone_provider": "1u1VersatelD"
  },
  {
    "area_code": "201",
    "place_name": "Essen",
    "phone_block_from": "4262000",
    "phone_block_to": "4262999",
    "block_size": "1000",
    "phone_provider": "1u1VersatelD"
  },
  {
    "area_code": "201",
    "place_name": "Essen",
    "phone_block_from": "4263000",
    "phone_block_to": "4263999",
    "block_size": "1000",
    "phone_provider": "1u1VersatelD"
  },
  {
    "area_code": "201",
    "place_name": "Essen",
    "phone_block_from": "4264000",
    "phone_block_to": "4264999",
    "block_size": "1000",
    "phone_provider": "1u1VersatelD"
  },
  {
    "area_code": "201",
    "place_name": "Essen",
    "phone_block_from": "4265000",
    "phone_block_to": "4265999",
    "block_size": "1000",
    "phone_provider": "1u1VersatelD"
  },
  {
    "area_code": "201",
    "place_name": "Essen",
    "phone_block_from": "4266000",
    "phone_block_to": "4266999",
    "block_size": "1000",
    "phone_provider": "1u1VersatelD"
  },
  {
    "area_code": "201",
    "place_name": "Essen",
    "phone_block_from": "4267000",
    "phone_block_to": "4267999",
    "block_size": "1000",
    "phone_provider": "1u1VersatelD"
  },
  {
    "area_code": "201",
    "place_name": "Essen",
    "phone_block_from": "4268000",
    "phone_block_to": "4268999",
    "block_size": "1000",
    "phone_provider": "1u1VersatelD"
  },
  {
    "area_code": "201",
    "place_name": "Essen",
    "phone_block_from": "4269000",
    "phone_block_to": "4269999",
    "block_size": "1000",
    "phone_provider": "1u1VersatelD"
  },
  {
    "area_code": "201",
    "place_name": "Essen",
    "phone_block_from": "4301000",
    "phone_block_to": "4301999",
    "block_size": "1000",
    "phone_provider": "Telekom"
  },
  {
    "area_code": "201",
    "place_name": "Essen",
    "phone_block_from": "4302000",
    "phone_block_to": "4302999",
    "block_size": "1000",
    "phone_provider": "Telekom"
  },
  {
    "area_code": "201",
    "place_name": "Essen",
    "phone_block_from": "4303000",
    "phone_block_to": "4303999",
    "block_size": "1000",
    "phone_provider": "Telekom"
  },
  {
    "area_code": "201",
    "place_name": "Essen",
    "phone_block_from": "4304000",
    "phone_block_to": "4304999",
    "block_size": "1000",
    "phone_provider": "Telekom"
  },
  {
    "area_code": "201",
    "place_name": "Essen",
    "phone_block_from": "4305000",
    "phone_block_to": "4305999",
    "block_size": "1000",
    "phone_provider": "Telekom"
  },
  {
    "area_code": "201",
    "place_name": "Essen",
    "phone_block_from": "4306000",
    "phone_block_to": "4306999",
    "block_size": "1000",
    "phone_provider": "Telekom"
  },
  {
    "area_code": "201",
    "place_name": "Essen",
    "phone_block_from": "4309000",
    "phone_block_to": "4309999",
    "block_size": "1000",
    "phone_provider": "Telekom"
  },
  {
    "area_code": "201",
    "place_name": "Essen",
    "phone_block_from": "4320000",
    "phone_block_to": "4320999",
    "block_size": "1000",
    "phone_provider": "Telekom"
  },
  {
    "area_code": "201",
    "place_name": "Essen",
    "phone_block_from": "4321000",
    "phone_block_to": "4321999",
    "block_size": "1000",
    "phone_provider": "Telekom"
  },
  {
    "area_code": "201",
    "place_name": "Essen",
    "phone_block_from": "4322000",
    "phone_block_to": "4322999",
    "block_size": "1000",
    "phone_provider": "Telekom"
  },
  {
    "area_code": "201",
    "place_name": "Essen",
    "phone_block_from": "4323000",
    "phone_block_to": "4323999",
    "block_size": "1000",
    "phone_provider": "Telekom"
  },
  {
    "area_code": "201",
    "place_name": "Essen",
    "phone_block_from": "4335000",
    "phone_block_to": "4335999",
    "block_size": "1000",
    "phone_provider": "Telefonica"
  },
  {
    "area_code": "201",
    "place_name": "Essen",
    "phone_block_from": "4336000",
    "phone_block_to": "4336999",
    "block_size": "1000",
    "phone_provider": "Telefonica"
  },
  {
    "area_code": "201",
    "place_name": "Essen",
    "phone_block_from": "4337000",
    "phone_block_to": "4337999",
    "block_size": "1000",
    "phone_provider": "Telefonica"
  },
  {
    "area_code": "201",
    "place_name": "Essen",
    "phone_block_from": "4338000",
    "phone_block_to": "4338999",
    "block_size": "1000",
    "phone_provider": "Telefonica"
  },
  {
    "area_code": "201",
    "place_name": "Essen",
    "phone_block_from": "4339000",
    "phone_block_to": "4339999",
    "block_size": "1000",
    "phone_provider": "Telefonica"
  },
  {
    "area_code": "201",
    "place_name": "Essen",
    "phone_block_from": "4357000",
    "phone_block_to": "4357999",
    "block_size": "1000",
    "phone_provider": "Multiconnect"
  },
  {
    "area_code": "201",
    "place_name": "Essen",
    "phone_block_from": "4358000",
    "phone_block_to": "4358999",
    "block_size": "1000",
    "phone_provider": "broadnet"
  },
  {
    "area_code": "201",
    "place_name": "Essen",
    "phone_block_from": "4359000",
    "phone_block_to": "4359999",
    "block_size": "1000",
    "phone_provider": "broadnet"
  },
  {
    "area_code": "201",
    "place_name": "Essen",
    "phone_block_from": "4360000",
    "phone_block_to": "4360999",
    "block_size": "1000",
    "phone_provider": "Telekom"
  },
  {
    "area_code": "201",
    "place_name": "Essen",
    "phone_block_from": "4361000",
    "phone_block_to": "4361999",
    "block_size": "1000",
    "phone_provider": "Telekom"
  },
  {
    "area_code": "201",
    "place_name": "Essen",
    "phone_block_from": "4362000",
    "phone_block_to": "4362999",
    "block_size": "1000",
    "phone_provider": "Telekom"
  },
  {
    "area_code": "201",
    "place_name": "Essen",
    "phone_block_from": "4363000",
    "phone_block_to": "4363999",
    "block_size": "1000",
    "phone_provider": "Telekom"
  },
  {
    "area_code": "201",
    "place_name": "Essen",
    "phone_block_from": "4364000",
    "phone_block_to": "4364999",
    "block_size": "1000",
    "phone_provider": "Telekom"
  },
  {
    "area_code": "201",
    "place_name": "Essen",
    "phone_block_from": "4366000",
    "phone_block_to": "4366999",
    "block_size": "1000",
    "phone_provider": "Telekom"
  },
  {
    "area_code": "201",
    "place_name": "Essen",
    "phone_block_from": "4367000",
    "phone_block_to": "4367999",
    "block_size": "1000",
    "phone_provider": "Telekom"
  },
  {
    "area_code": "201",
    "place_name": "Essen",
    "phone_block_from": "4368000",
    "phone_block_to": "4368999",
    "block_size": "1000",
    "phone_provider": "Telekom"
  },
  {
    "area_code": "201",
    "place_name": "Essen",
    "phone_block_from": "4369000",
    "phone_block_to": "4369999",
    "block_size": "1000",
    "phone_provider": "Telekom"
  },
  {
    "area_code": "201",
    "place_name": "Essen",
    "phone_block_from": "4370000",
    "phone_block_to": "4370999",
    "block_size": "1000",
    "phone_provider": "Telekom"
  },
  {
    "area_code": "201",
    "place_name": "Essen",
    "phone_block_from": "4371000",
    "phone_block_to": "4371999",
    "block_size": "1000",
    "phone_provider": "Telekom"
  },
  {
    "area_code": "201",
    "place_name": "Essen",
    "phone_block_from": "4372000",
    "phone_block_to": "4372999",
    "block_size": "1000",
    "phone_provider": "Telekom"
  },
  {
    "area_code": "201",
    "place_name": "Essen",
    "phone_block_from": "4373000",
    "phone_block_to": "4373999",
    "block_size": "1000",
    "phone_provider": "Telekom"
  },
  {
    "area_code": "201",
    "place_name": "Essen",
    "phone_block_from": "4374000",
    "phone_block_to": "4374999",
    "block_size": "1000",
    "phone_provider": "Telekom"
  },
  {
    "area_code": "201",
    "place_name": "Essen",
    "phone_block_from": "4375000",
    "phone_block_to": "4375999",
    "block_size": "1000",
    "phone_provider": "Telekom"
  },
  {
    "area_code": "201",
    "place_name": "Essen",
    "phone_block_from": "4376000",
    "phone_block_to": "4376999",
    "block_size": "1000",
    "phone_provider": "Telekom"
  },
  {
    "area_code": "201",
    "place_name": "Essen",
    "phone_block_from": "4377000",
    "phone_block_to": "4377999",
    "block_size": "1000",
    "phone_provider": "Telekom"
  },
  {
    "area_code": "201",
    "place_name": "Essen",
    "phone_block_from": "4378000",
    "phone_block_to": "4378999",
    "block_size": "1000",
    "phone_provider": "Telekom"
  },
  {
    "area_code": "201",
    "place_name": "Essen",
    "phone_block_from": "4379000",
    "phone_block_to": "4379999",
    "block_size": "1000",
    "phone_provider": "Telekom"
  },
  {
    "area_code": "201",
    "place_name": "Essen",
    "phone_block_from": "4380000",
    "phone_block_to": "4380999",
    "block_size": "1000",
    "phone_provider": "Telekom"
  },
  {
    "area_code": "201",
    "place_name": "Essen",
    "phone_block_from": "4381000",
    "phone_block_to": "4381999",
    "block_size": "1000",
    "phone_provider": "Telekom"
  },
  {
    "area_code": "201",
    "place_name": "Essen",
    "phone_block_from": "4382000",
    "phone_block_to": "4382999",
    "block_size": "1000",
    "phone_provider": "Telekom"
  },
  {
    "area_code": "201",
    "place_name": "Essen",
    "phone_block_from": "4383000",
    "phone_block_to": "4383999",
    "block_size": "1000",
    "phone_provider": "Telekom"
  },
  {
    "area_code": "201",
    "place_name": "Essen",
    "phone_block_from": "4384000",
    "phone_block_to": "4384999",
    "block_size": "1000",
    "phone_provider": "Telekom"
  },
  {
    "area_code": "201",
    "place_name": "Essen",
    "phone_block_from": "4385000",
    "phone_block_to": "4385999",
    "block_size": "1000",
    "phone_provider": "Telekom"
  },
  {
    "area_code": "201",
    "place_name": "Essen",
    "phone_block_from": "4386000",
    "phone_block_to": "4386999",
    "block_size": "1000",
    "phone_provider": "Telekom"
  },
  {
    "area_code": "201",
    "place_name": "Essen",
    "phone_block_from": "4387000",
    "phone_block_to": "4387999",
    "block_size": "1000",
    "phone_provider": "Telekom"
  },
  {
    "area_code": "201",
    "place_name": "Essen",
    "phone_block_from": "4388000",
    "phone_block_to": "4388999",
    "block_size": "1000",
    "phone_provider": "Telekom"
  },
  {
    "area_code": "201",
    "place_name": "Essen",
    "phone_block_from": "4389000",
    "phone_block_to": "4389999",
    "block_size": "1000",
    "phone_provider": "Telekom"
  },
  {
    "area_code": "201",
    "place_name": "Essen",
    "phone_block_from": "4390000",
    "phone_block_to": "4390999",
    "block_size": "1000",
    "phone_provider": "Telekom"
  },
  {
    "area_code": "201",
    "place_name": "Essen",
    "phone_block_from": "4391000",
    "phone_block_to": "4391999",
    "block_size": "1000",
    "phone_provider": "Telekom"
  },
  {
    "area_code": "201",
    "place_name": "Essen",
    "phone_block_from": "4392000",
    "phone_block_to": "4392999",
    "block_size": "1000",
    "phone_provider": "Telekom"
  },
  {
    "area_code": "201",
    "place_name": "Essen",
    "phone_block_from": "4393000",
    "phone_block_to": "4393999",
    "block_size": "1000",
    "phone_provider": "Telekom"
  },
  {
    "area_code": "201",
    "place_name": "Essen",
    "phone_block_from": "4394000",
    "phone_block_to": "4394999",
    "block_size": "1000",
    "phone_provider": "Telekom"
  },
  {
    "area_code": "201",
    "place_name": "Essen",
    "phone_block_from": "4395000",
    "phone_block_to": "4395999",
    "block_size": "1000",
    "phone_provider": "Telekom"
  },
  {
    "area_code": "201",
    "place_name": "Essen",
    "phone_block_from": "4396000",
    "phone_block_to": "4396999",
    "block_size": "1000",
    "phone_provider": "Telekom"
  },
  {
    "area_code": "201",
    "place_name": "Essen",
    "phone_block_from": "4397000",
    "phone_block_to": "4397999",
    "block_size": "1000",
    "phone_provider": "Telekom"
  },
  {
    "area_code": "201",
    "place_name": "Essen",
    "phone_block_from": "4398000",
    "phone_block_to": "4398999",
    "block_size": "1000",
    "phone_provider": "Telekom"
  },
  {
    "area_code": "201",
    "place_name": "Essen",
    "phone_block_from": "4399000",
    "phone_block_to": "4399999",
    "block_size": "1000",
    "phone_provider": "Telekom"
  },
  {
    "area_code": "201",
    "place_name": "Essen",
    "phone_block_from": "4503000",
    "phone_block_to": "4503999",
    "block_size": "1000",
    "phone_provider": "Telekom"
  },
  {
    "area_code": "201",
    "place_name": "Essen",
    "phone_block_from": "4504000",
    "phone_block_to": "4504999",
    "block_size": "1000",
    "phone_provider": "Telekom"
  },
  {
    "area_code": "201",
    "place_name": "Essen",
    "phone_block_from": "4509000",
    "phone_block_to": "4509999",
    "block_size": "1000",
    "phone_provider": "Telekom"
  },
  {
    "area_code": "201",
    "place_name": "Essen",
    "phone_block_from": "4513000",
    "phone_block_to": "4513999",
    "block_size": "1000",
    "phone_provider": "Telekom"
  },
  {
    "area_code": "201",
    "place_name": "Essen",
    "phone_block_from": "4515000",
    "phone_block_to": "4515999",
    "block_size": "1000",
    "phone_provider": "1u1VersatelD"
  },
  {
    "area_code": "201",
    "place_name": "Essen",
    "phone_block_from": "4516000",
    "phone_block_to": "4516999",
    "block_size": "1000",
    "phone_provider": "1u1VersatelD"
  },
  {
    "area_code": "201",
    "place_name": "Essen",
    "phone_block_from": "4518000",
    "phone_block_to": "4518999",
    "block_size": "1000",
    "phone_provider": "1u1VersatelD"
  },
  {
    "area_code": "201",
    "place_name": "Essen",
    "phone_block_from": "4519000",
    "phone_block_to": "4519999",
    "block_size": "1000",
    "phone_provider": "Telekom"
  },
  {
    "area_code": "201",
    "place_name": "Essen",
    "phone_block_from": "4520000",
    "phone_block_to": "4520999",
    "block_size": "1000",
    "phone_provider": "Vodafone"
  },
  {
    "area_code": "201",
    "place_name": "Essen",
    "phone_block_from": "4521000",
    "phone_block_to": "4521999",
    "block_size": "1000",
    "phone_provider": "Vodafone"
  },
  {
    "area_code": "201",
    "place_name": "Essen",
    "phone_block_from": "4522000",
    "phone_block_to": "4522999",
    "block_size": "1000",
    "phone_provider": "Vodafone"
  },
  {
    "area_code": "201",
    "place_name": "Essen",
    "phone_block_from": "4523000",
    "phone_block_to": "4523999",
    "block_size": "1000",
    "phone_provider": "Vodafone"
  },
  {
    "area_code": "201",
    "place_name": "Essen",
    "phone_block_from": "4524000",
    "phone_block_to": "4524999",
    "block_size": "1000",
    "phone_provider": "Vodafone"
  },
  {
    "area_code": "201",
    "place_name": "Essen",
    "phone_block_from": "4525000",
    "phone_block_to": "4525999",
    "block_size": "1000",
    "phone_provider": "Vodafone"
  },
  {
    "area_code": "201",
    "place_name": "Essen",
    "phone_block_from": "4526000",
    "phone_block_to": "4526999",
    "block_size": "1000",
    "phone_provider": "Vodafone"
  },
  {
    "area_code": "201",
    "place_name": "Essen",
    "phone_block_from": "4527000",
    "phone_block_to": "4527999",
    "block_size": "1000",
    "phone_provider": "Vodafone"
  },
  {
    "area_code": "201",
    "place_name": "Essen",
    "phone_block_from": "4528000",
    "phone_block_to": "4528999",
    "block_size": "1000",
    "phone_provider": "Vodafone"
  },
  {
    "area_code": "201",
    "place_name": "Essen",
    "phone_block_from": "4529000",
    "phone_block_to": "4529999",
    "block_size": "1000",
    "phone_provider": "Vodafone"
  },
  {
    "area_code": "201",
    "place_name": "Essen",
    "phone_block_from": "4531000",
    "phone_block_to": "4531999",
    "block_size": "1000",
    "phone_provider": "Telefonica"
  },
  {
    "area_code": "201",
    "place_name": "Essen",
    "phone_block_from": "4532000",
    "phone_block_to": "4532999",
    "block_size": "1000",
    "phone_provider": "Telefonica"
  },
  {
    "area_code": "201",
    "place_name": "Essen",
    "phone_block_from": "4533000",
    "phone_block_to": "4533999",
    "block_size": "1000",
    "phone_provider": "Telefonica"
  },
  {
    "area_code": "201",
    "place_name": "Essen",
    "phone_block_from": "4534000",
    "phone_block_to": "4534999",
    "block_size": "1000",
    "phone_provider": "Telefonica"
  },
  {
    "area_code": "201",
    "place_name": "Essen",
    "phone_block_from": "4535000",
    "phone_block_to": "4535999",
    "block_size": "1000",
    "phone_provider": "Telefonica"
  },
  {
    "area_code": "201",
    "place_name": "Essen",
    "phone_block_from": "4536000",
    "phone_block_to": "4536999",
    "block_size": "1000",
    "phone_provider": "Telefonica"
  },
  {
    "area_code": "201",
    "place_name": "Essen",
    "phone_block_from": "4537000",
    "phone_block_to": "4537999",
    "block_size": "1000",
    "phone_provider": "Telefonica"
  },
  {
    "area_code": "201",
    "place_name": "Essen",
    "phone_block_from": "4538000",
    "phone_block_to": "4538999",
    "block_size": "1000",
    "phone_provider": "Telefonica"
  },
  {
    "area_code": "201",
    "place_name": "Essen",
    "phone_block_from": "4539000",
    "phone_block_to": "4539999",
    "block_size": "1000",
    "phone_provider": "Telefonica"
  },
  {
    "area_code": "201",
    "place_name": "Essen",
    "phone_block_from": "4540000",
    "phone_block_to": "4540999",
    "block_size": "1000",
    "phone_provider": "Telefonica"
  },
  {
    "area_code": "201",
    "place_name": "Essen",
    "phone_block_from": "4555000",
    "phone_block_to": "4555999",
    "block_size": "1000",
    "phone_provider": "Telekom"
  },
  {
    "area_code": "201",
    "place_name": "Essen",
    "phone_block_from": "4556000",
    "phone_block_to": "4556999",
    "block_size": "1000",
    "phone_provider": "Telekom"
  },
  {
    "area_code": "201",
    "place_name": "Essen",
    "phone_block_from": "4557000",
    "phone_block_to": "4557999",
    "block_size": "1000",
    "phone_provider": "Telekom"
  },
  {
    "area_code": "201",
    "place_name": "Essen",
    "phone_block_from": "4558000",
    "phone_block_to": "4558999",
    "block_size": "1000",
    "phone_provider": "Telekom"
  },
  {
    "area_code": "201",
    "place_name": "Essen",
    "phone_block_from": "4559000",
    "phone_block_to": "4559999",
    "block_size": "1000",
    "phone_provider": "FirstT"
  },
  {
    "area_code": "201",
    "place_name": "Essen",
    "phone_block_from": "4584000",
    "phone_block_to": "4584999",
    "block_size": "1000",
    "phone_provider": "VodafoneNRW"
  },
  {
    "area_code": "201",
    "place_name": "Essen",
    "phone_block_from": "4585000",
    "phone_block_to": "4585999",
    "block_size": "1000",
    "phone_provider": "VodafoneNRW"
  },
  {
    "area_code": "201",
    "place_name": "Essen",
    "phone_block_from": "4586000",
    "phone_block_to": "4586999",
    "block_size": "1000",
    "phone_provider": "VodafoneNRW"
  },
  {
    "area_code": "201",
    "place_name": "Essen",
    "phone_block_from": "4587000",
    "phone_block_to": "4587999",
    "block_size": "1000",
    "phone_provider": "VodafoneNRW"
  },
  {
    "area_code": "201",
    "place_name": "Essen",
    "phone_block_from": "4588000",
    "phone_block_to": "4588999",
    "block_size": "1000",
    "phone_provider": "VodafoneNRW"
  },
  {
    "area_code": "201",
    "place_name": "Essen",
    "phone_block_from": "4589000",
    "phone_block_to": "4589999",
    "block_size": "1000",
    "phone_provider": "VodafoneNRW"
  },
  {
    "area_code": "201",
    "place_name": "Essen",
    "phone_block_from": "4668000",
    "phone_block_to": "4668999",
    "block_size": "1000",
    "phone_provider": "Telekom"
  },
  {
    "area_code": "201",
    "place_name": "Essen",
    "phone_block_from": "4669000",
    "phone_block_to": "4669999",
    "block_size": "1000",
    "phone_provider": "Telekom"
  },
  {
    "area_code": "201",
    "place_name": "Essen",
    "phone_block_from": "4690000",
    "phone_block_to": "4690999",
    "block_size": "1000",
    "phone_provider": "Vodafone"
  },
  {
    "area_code": "201",
    "place_name": "Essen",
    "phone_block_from": "4691000",
    "phone_block_to": "4691999",
    "block_size": "1000",
    "phone_provider": "Vodafone"
  },
  {
    "area_code": "201",
    "place_name": "Essen",
    "phone_block_from": "4692000",
    "phone_block_to": "4692999",
    "block_size": "1000",
    "phone_provider": "Vodafone"
  },
  {
    "area_code": "201",
    "place_name": "Essen",
    "phone_block_from": "4693000",
    "phone_block_to": "4693999",
    "block_size": "1000",
    "phone_provider": "Vodafone"
  },
  {
    "area_code": "201",
    "place_name": "Essen",
    "phone_block_from": "4694000",
    "phone_block_to": "4694999",
    "block_size": "1000",
    "phone_provider": "Vodafone"
  },
  {
    "area_code": "201",
    "place_name": "Essen",
    "phone_block_from": "4695000",
    "phone_block_to": "4695999",
    "block_size": "1000",
    "phone_provider": "Vodafone"
  },
  {
    "area_code": "201",
    "place_name": "Essen",
    "phone_block_from": "4696000",
    "phone_block_to": "4696999",
    "block_size": "1000",
    "phone_provider": "Vodafone"
  },
  {
    "area_code": "201",
    "place_name": "Essen",
    "phone_block_from": "4697000",
    "phone_block_to": "4697999",
    "block_size": "1000",
    "phone_provider": "Vodafone"
  },
  {
    "area_code": "201",
    "place_name": "Essen",
    "phone_block_from": "4698000",
    "phone_block_to": "4698999",
    "block_size": "1000",
    "phone_provider": "Vodafone"
  },
  {
    "area_code": "201",
    "place_name": "Essen",
    "phone_block_from": "4699000",
    "phone_block_to": "4699999",
    "block_size": "1000",
    "phone_provider": "Vodafone"
  },
  {
    "area_code": "201",
    "place_name": "Essen",
    "phone_block_from": "4709000",
    "phone_block_to": "4709999",
    "block_size": "1000",
    "phone_provider": "Netzquadrat"
  },
  {
    "area_code": "201",
    "place_name": "Essen",
    "phone_block_from": "4740000",
    "phone_block_to": "4740999",
    "block_size": "1000",
    "phone_provider": "Telefonica"
  },
  {
    "area_code": "201",
    "place_name": "Essen",
    "phone_block_from": "4741000",
    "phone_block_to": "4741999",
    "block_size": "1000",
    "phone_provider": "Telefonica"
  },
  {
    "area_code": "201",
    "place_name": "Essen",
    "phone_block_from": "4742000",
    "phone_block_to": "4742999",
    "block_size": "1000",
    "phone_provider": "Telefonica"
  },
  {
    "area_code": "201",
    "place_name": "Essen",
    "phone_block_from": "4743000",
    "phone_block_to": "4743999",
    "block_size": "1000",
    "phone_provider": "Telefonica"
  },
  {
    "area_code": "201",
    "place_name": "Essen",
    "phone_block_from": "4744000",
    "phone_block_to": "4744999",
    "block_size": "1000",
    "phone_provider": "Telefonica"
  },
  {
    "area_code": "201",
    "place_name": "Essen",
    "phone_block_from": "4745000",
    "phone_block_to": "4745999",
    "block_size": "1000",
    "phone_provider": "Telefonica"
  },
  {
    "area_code": "201",
    "place_name": "Essen",
    "phone_block_from": "4746000",
    "phone_block_to": "4746999",
    "block_size": "1000",
    "phone_provider": "Telefonica"
  },
  {
    "area_code": "201",
    "place_name": "Essen",
    "phone_block_from": "4747000",
    "phone_block_to": "4747999",
    "block_size": "1000",
    "phone_provider": "Telefonica"
  },
  {
    "area_code": "201",
    "place_name": "Essen",
    "phone_block_from": "4748000",
    "phone_block_to": "4748999",
    "block_size": "1000",
    "phone_provider": "Telefonica"
  },
  {
    "area_code": "201",
    "place_name": "Essen",
    "phone_block_from": "4749000",
    "phone_block_to": "4749999",
    "block_size": "1000",
    "phone_provider": "Telefonica"
  },
  {
    "area_code": "201",
    "place_name": "Essen",
    "phone_block_from": "4750000",
    "phone_block_to": "4750999",
    "block_size": "1000",
    "phone_provider": "Vodafone"
  },
  {
    "area_code": "201",
    "place_name": "Essen",
    "phone_block_from": "4751000",
    "phone_block_to": "4751999",
    "block_size": "1000",
    "phone_provider": "Vodafone"
  },
  {
    "area_code": "201",
    "place_name": "Essen",
    "phone_block_from": "4752000",
    "phone_block_to": "4752999",
    "block_size": "1000",
    "phone_provider": "Vodafone"
  },
  {
    "area_code": "201",
    "place_name": "Essen",
    "phone_block_from": "4753000",
    "phone_block_to": "4753999",
    "block_size": "1000",
    "phone_provider": "Vodafone"
  },
  {
    "area_code": "201",
    "place_name": "Essen",
    "phone_block_from": "4754000",
    "phone_block_to": "4754999",
    "block_size": "1000",
    "phone_provider": "Vodafone"
  },
  {
    "area_code": "201",
    "place_name": "Essen",
    "phone_block_from": "4755000",
    "phone_block_to": "4755999",
    "block_size": "1000",
    "phone_provider": "Vodafone"
  },
  {
    "area_code": "201",
    "place_name": "Essen",
    "phone_block_from": "4756000",
    "phone_block_to": "4756999",
    "block_size": "1000",
    "phone_provider": "Vodafone"
  },
  {
    "area_code": "201",
    "place_name": "Essen",
    "phone_block_from": "4757000",
    "phone_block_to": "4757999",
    "block_size": "1000",
    "phone_provider": "Vodafone"
  },
  {
    "area_code": "201",
    "place_name": "Essen",
    "phone_block_from": "4758000",
    "phone_block_to": "4758999",
    "block_size": "1000",
    "phone_provider": "Vodafone"
  },
  {
    "area_code": "201",
    "place_name": "Essen",
    "phone_block_from": "4759000",
    "phone_block_to": "4759999",
    "block_size": "1000",
    "phone_provider": "Vodafone"
  },
  {
    "area_code": "201",
    "place_name": "Essen",
    "phone_block_from": "4760000",
    "phone_block_to": "4760999",
    "block_size": "1000",
    "phone_provider": "Telefonica"
  },
  {
    "area_code": "201",
    "place_name": "Essen",
    "phone_block_from": "4761000",
    "phone_block_to": "4761999",
    "block_size": "1000",
    "phone_provider": "Telefonica"
  },
  {
    "area_code": "201",
    "place_name": "Essen",
    "phone_block_from": "4762000",
    "phone_block_to": "4762999",
    "block_size": "1000",
    "phone_provider": "Telefonica"
  },
  {
    "area_code": "201",
    "place_name": "Essen",
    "phone_block_from": "4763000",
    "phone_block_to": "4763999",
    "block_size": "1000",
    "phone_provider": "Telefonica"
  },
  {
    "area_code": "201",
    "place_name": "Essen",
    "phone_block_from": "4764000",
    "phone_block_to": "4764999",
    "block_size": "1000",
    "phone_provider": "Telefonica"
  },
  {
    "area_code": "201",
    "place_name": "Essen",
    "phone_block_from": "4765000",
    "phone_block_to": "4765999",
    "block_size": "1000",
    "phone_provider": "Telefonica"
  },
  {
    "area_code": "201",
    "place_name": "Essen",
    "phone_block_from": "4766000",
    "phone_block_to": "4766999",
    "block_size": "1000",
    "phone_provider": "Telefonica"
  },
  {
    "area_code": "201",
    "place_name": "Essen",
    "phone_block_from": "4767000",
    "phone_block_to": "4767999",
    "block_size": "1000",
    "phone_provider": "Telefonica"
  },
  {
    "area_code": "201",
    "place_name": "Essen",
    "phone_block_from": "4768000",
    "phone_block_to": "4768999",
    "block_size": "1000",
    "phone_provider": "Telefonica"
  },
  {
    "area_code": "201",
    "place_name": "Essen",
    "phone_block_from": "4769000",
    "phone_block_to": "4769999",
    "block_size": "1000",
    "phone_provider": "Telefonica"
  },
  {
    "area_code": "201",
    "place_name": "Essen",
    "phone_block_from": "4770000",
    "phone_block_to": "4770999",
    "block_size": "1000",
    "phone_provider": "Vodafone"
  },
  {
    "area_code": "201",
    "place_name": "Essen",
    "phone_block_from": "4771000",
    "phone_block_to": "4771999",
    "block_size": "1000",
    "phone_provider": "Vodafone"
  },
  {
    "area_code": "201",
    "place_name": "Essen",
    "phone_block_from": "4772000",
    "phone_block_to": "4772999",
    "block_size": "1000",
    "phone_provider": "Vodafone"
  },
  {
    "area_code": "201",
    "place_name": "Essen",
    "phone_block_from": "4773000",
    "phone_block_to": "4773999",
    "block_size": "1000",
    "phone_provider": "Vodafone"
  },
  {
    "area_code": "201",
    "place_name": "Essen",
    "phone_block_from": "4774000",
    "phone_block_to": "4774999",
    "block_size": "1000",
    "phone_provider": "Vodafone"
  },
  {
    "area_code": "201",
    "place_name": "Essen",
    "phone_block_from": "4775000",
    "phone_block_to": "4775999",
    "block_size": "1000",
    "phone_provider": "Vodafone"
  },
  {
    "area_code": "201",
    "place_name": "Essen",
    "phone_block_from": "4776000",
    "phone_block_to": "4776999",
    "block_size": "1000",
    "phone_provider": "Vodafone"
  },
  {
    "area_code": "201",
    "place_name": "Essen",
    "phone_block_from": "4777000",
    "phone_block_to": "4777999",
    "block_size": "1000",
    "phone_provider": "Vodafone"
  },
  {
    "area_code": "201",
    "place_name": "Essen",
    "phone_block_from": "4778000",
    "phone_block_to": "4778999",
    "block_size": "1000",
    "phone_provider": "Vodafone"
  },
  {
    "area_code": "201",
    "place_name": "Essen",
    "phone_block_from": "4779000",
    "phone_block_to": "4779999",
    "block_size": "1000",
    "phone_provider": "Vodafone"
  },
  {
    "area_code": "201",
    "place_name": "Essen",
    "phone_block_from": "4781000",
    "phone_block_to": "4781999",
    "block_size": "1000",
    "phone_provider": "Telekom"
  },
  {
    "area_code": "201",
    "place_name": "Essen",
    "phone_block_from": "4782000",
    "phone_block_to": "4782999",
    "block_size": "1000",
    "phone_provider": "Telekom"
  },
  {
    "area_code": "201",
    "place_name": "Essen",
    "phone_block_from": "4783000",
    "phone_block_to": "4783999",
    "block_size": "1000",
    "phone_provider": "Telekom"
  },
  {
    "area_code": "201",
    "place_name": "Essen",
    "phone_block_from": "4784000",
    "phone_block_to": "4784999",
    "block_size": "1000",
    "phone_provider": "Telekom"
  },
  {
    "area_code": "201",
    "place_name": "Essen",
    "phone_block_from": "4785000",
    "phone_block_to": "4785999",
    "block_size": "1000",
    "phone_provider": "Telekom"
  },
  {
    "area_code": "201",
    "place_name": "Essen",
    "phone_block_from": "4786000",
    "phone_block_to": "4786999",
    "block_size": "1000",
    "phone_provider": "Telekom"
  },
  {
    "area_code": "201",
    "place_name": "Essen",
    "phone_block_from": "4787000",
    "phone_block_to": "4787999",
    "block_size": "1000",
    "phone_provider": "Telekom"
  },
  {
    "area_code": "201",
    "place_name": "Essen",
    "phone_block_from": "4788000",
    "phone_block_to": "4788999",
    "block_size": "1000",
    "phone_provider": "Telekom"
  },
  {
    "area_code": "201",
    "place_name": "Essen",
    "phone_block_from": "4789000",
    "phone_block_to": "4789999",
    "block_size": "1000",
    "phone_provider": "Telekom"
  },
  {
    "area_code": "201",
    "place_name": "Essen",
    "phone_block_from": "4790000",
    "phone_block_to": "4790999",
    "block_size": "1000",
    "phone_provider": "Vodafone"
  },
  {
    "area_code": "201",
    "place_name": "Essen",
    "phone_block_from": "4791000",
    "phone_block_to": "4791999",
    "block_size": "1000",
    "phone_provider": "Vodafone"
  },
  {
    "area_code": "201",
    "place_name": "Essen",
    "phone_block_from": "4792000",
    "phone_block_to": "4792999",
    "block_size": "1000",
    "phone_provider": "Vodafone"
  },
  {
    "area_code": "201",
    "place_name": "Essen",
    "phone_block_from": "4793000",
    "phone_block_to": "4793999",
    "block_size": "1000",
    "phone_provider": "Vodafone"
  },
  {
    "area_code": "201",
    "place_name": "Essen",
    "phone_block_from": "4794000",
    "phone_block_to": "4794999",
    "block_size": "1000",
    "phone_provider": "Vodafone"
  },
  {
    "area_code": "201",
    "place_name": "Essen",
    "phone_block_from": "4795000",
    "phone_block_to": "4795999",
    "block_size": "1000",
    "phone_provider": "Vodafone"
  },
  {
    "area_code": "201",
    "place_name": "Essen",
    "phone_block_from": "4796000",
    "phone_block_to": "4796999",
    "block_size": "1000",
    "phone_provider": "Vodafone"
  },
  {
    "area_code": "201",
    "place_name": "Essen",
    "phone_block_from": "4797000",
    "phone_block_to": "4797999",
    "block_size": "1000",
    "phone_provider": "Vodafone"
  },
  {
    "area_code": "201",
    "place_name": "Essen",
    "phone_block_from": "4798000",
    "phone_block_to": "4798999",
    "block_size": "1000",
    "phone_provider": "Vodafone"
  },
  {
    "area_code": "201",
    "place_name": "Essen",
    "phone_block_from": "4799000",
    "phone_block_to": "4799999",
    "block_size": "1000",
    "phone_provider": "Vodafone"
  },
  {
    "area_code": "201",
    "place_name": "Essen",
    "phone_block_from": "4863000",
    "phone_block_to": "4863999",
    "block_size": "1000",
    "phone_provider": "netservices"
  },
  {
    "area_code": "201",
    "place_name": "Essen",
    "phone_block_from": "4864000",
    "phone_block_to": "4864999",
    "block_size": "1000",
    "phone_provider": "Telekom"
  },
  {
    "area_code": "201",
    "place_name": "Essen",
    "phone_block_from": "4868000",
    "phone_block_to": "4868999",
    "block_size": "1000",
    "phone_provider": "Telekom"
  },
  {
    "area_code": "201",
    "place_name": "Essen",
    "phone_block_from": "4879000",
    "phone_block_to": "4879999",
    "block_size": "1000",
    "phone_provider": "3U"
  },
  {
    "area_code": "201",
    "place_name": "Essen",
    "phone_block_from": "4901000",
    "phone_block_to": "4901999",
    "block_size": "1000",
    "phone_provider": "Telekom"
  },
  {
    "area_code": "201",
    "place_name": "Essen",
    "phone_block_from": "4902000",
    "phone_block_to": "4902999",
    "block_size": "1000",
    "phone_provider": "Telekom"
  },
  {
    "area_code": "201",
    "place_name": "Essen",
    "phone_block_from": "4903000",
    "phone_block_to": "4903999",
    "block_size": "1000",
    "phone_provider": "Telekom"
  },
  {
    "area_code": "201",
    "place_name": "Essen",
    "phone_block_from": "4906000",
    "phone_block_to": "4906999",
    "block_size": "1000",
    "phone_provider": "1u1VersatelD"
  },
  {
    "area_code": "201",
    "place_name": "Essen",
    "phone_block_from": "4907000",
    "phone_block_to": "4907999",
    "block_size": "1000",
    "phone_provider": "1u1VersatelD"
  },
  {
    "area_code": "201",
    "place_name": "Essen",
    "phone_block_from": "4908000",
    "phone_block_to": "4908999",
    "block_size": "1000",
    "phone_provider": "1u1VersatelD"
  },
  {
    "area_code": "201",
    "place_name": "Essen",
    "phone_block_from": "4909000",
    "phone_block_to": "4909999",
    "block_size": "1000",
    "phone_provider": "1u1VersatelD"
  },
  {
    "area_code": "201",
    "place_name": "Essen",
    "phone_block_from": "4953000",
    "phone_block_to": "4953999",
    "block_size": "1000",
    "phone_provider": "1u1VersatelD"
  },
  {
    "area_code": "201",
    "place_name": "Essen",
    "phone_block_from": "4954000",
    "phone_block_to": "4954999",
    "block_size": "1000",
    "phone_provider": "1u1VersatelD"
  },
  {
    "area_code": "201",
    "place_name": "Essen",
    "phone_block_from": "4955000",
    "phone_block_to": "4955999",
    "block_size": "1000",
    "phone_provider": "1u1VersatelD"
  },
  {
    "area_code": "201",
    "place_name": "Essen",
    "phone_block_from": "4956000",
    "phone_block_to": "4956999",
    "block_size": "1000",
    "phone_provider": "1u1VersatelD"
  },
  {
    "area_code": "201",
    "place_name": "Essen",
    "phone_block_from": "4957000",
    "phone_block_to": "4957999",
    "block_size": "1000",
    "phone_provider": "1u1VersatelD"
  },
  {
    "area_code": "201",
    "place_name": "Essen",
    "phone_block_from": "4958000",
    "phone_block_to": "4958999",
    "block_size": "1000",
    "phone_provider": "1u1VersatelD"
  },
  {
    "area_code": "201",
    "place_name": "Essen",
    "phone_block_from": "4959000",
    "phone_block_to": "4959999",
    "block_size": "1000",
    "phone_provider": "1u1VersatelD"
  },
  {
    "area_code": "201",
    "place_name": "Essen",
    "phone_block_from": "5024000",
    "phone_block_to": "5024999",
    "block_size": "1000",
    "phone_provider": "Telekom"
  },
  {
    "area_code": "201",
    "place_name": "Essen",
    "phone_block_from": "5065000",
    "phone_block_to": "5065999",
    "block_size": "1000",
    "phone_provider": "broadnet"
  },
  {
    "area_code": "201",
    "place_name": "Essen",
    "phone_block_from": "5066000",
    "phone_block_to": "5066999",
    "block_size": "1000",
    "phone_provider": "broadnet"
  },
  {
    "area_code": "201",
    "place_name": "Essen",
    "phone_block_from": "5067000",
    "phone_block_to": "5067999",
    "block_size": "1000",
    "phone_provider": "broadnet"
  },
  {
    "area_code": "201",
    "place_name": "Essen",
    "phone_block_from": "5068000",
    "phone_block_to": "5068999",
    "block_size": "1000",
    "phone_provider": "broadnet"
  },
  {
    "area_code": "201",
    "place_name": "Essen",
    "phone_block_from": "5069000",
    "phone_block_to": "5069999",
    "block_size": "1000",
    "phone_provider": "broadnet"
  },
  {
    "area_code": "201",
    "place_name": "Essen",
    "phone_block_from": "5070000",
    "phone_block_to": "5070999",
    "block_size": "1000",
    "phone_provider": "Vodafone"
  },
  {
    "area_code": "201",
    "place_name": "Essen",
    "phone_block_from": "5071000",
    "phone_block_to": "5071999",
    "block_size": "1000",
    "phone_provider": "Vodafone"
  },
  {
    "area_code": "201",
    "place_name": "Essen",
    "phone_block_from": "5072000",
    "phone_block_to": "5072999",
    "block_size": "1000",
    "phone_provider": "Vodafone"
  },
  {
    "area_code": "201",
    "place_name": "Essen",
    "phone_block_from": "5073000",
    "phone_block_to": "5073999",
    "block_size": "1000",
    "phone_provider": "Vodafone"
  },
  {
    "area_code": "201",
    "place_name": "Essen",
    "phone_block_from": "5074000",
    "phone_block_to": "5074999",
    "block_size": "1000",
    "phone_provider": "Vodafone"
  },
  {
    "area_code": "201",
    "place_name": "Essen",
    "phone_block_from": "5075000",
    "phone_block_to": "5075999",
    "block_size": "1000",
    "phone_provider": "Vodafone"
  },
  {
    "area_code": "201",
    "place_name": "Essen",
    "phone_block_from": "5076000",
    "phone_block_to": "5076999",
    "block_size": "1000",
    "phone_provider": "Vodafone"
  },
  {
    "area_code": "201",
    "place_name": "Essen",
    "phone_block_from": "5077000",
    "phone_block_to": "5077999",
    "block_size": "1000",
    "phone_provider": "Vodafone"
  },
  {
    "area_code": "201",
    "place_name": "Essen",
    "phone_block_from": "5078000",
    "phone_block_to": "5078999",
    "block_size": "1000",
    "phone_provider": "Vodafone"
  },
  {
    "area_code": "201",
    "place_name": "Essen",
    "phone_block_from": "5079000",
    "phone_block_to": "5079999",
    "block_size": "1000",
    "phone_provider": "Vodafone"
  },
  {
    "area_code": "201",
    "place_name": "Essen",
    "phone_block_from": "5080000",
    "phone_block_to": "5080999",
    "block_size": "1000",
    "phone_provider": "1u1VersatelD"
  },
  {
    "area_code": "201",
    "place_name": "Essen",
    "phone_block_from": "5081000",
    "phone_block_to": "5081999",
    "block_size": "1000",
    "phone_provider": "1u1VersatelD"
  },
  {
    "area_code": "201",
    "place_name": "Essen",
    "phone_block_from": "5082000",
    "phone_block_to": "5082999",
    "block_size": "1000",
    "phone_provider": "1u1VersatelD"
  },
  {
    "area_code": "201",
    "place_name": "Essen",
    "phone_block_from": "5083000",
    "phone_block_to": "5083999",
    "block_size": "1000",
    "phone_provider": "1u1VersatelD"
  },
  {
    "area_code": "201",
    "place_name": "Essen",
    "phone_block_from": "5084000",
    "phone_block_to": "5084999",
    "block_size": "1000",
    "phone_provider": "1u1VersatelD"
  },
  {
    "area_code": "201",
    "place_name": "Essen",
    "phone_block_from": "5085000",
    "phone_block_to": "5085999",
    "block_size": "1000",
    "phone_provider": "1u1VersatelD"
  },
  {
    "area_code": "201",
    "place_name": "Essen",
    "phone_block_from": "5086000",
    "phone_block_to": "5086999",
    "block_size": "1000",
    "phone_provider": "1u1VersatelD"
  },
  {
    "area_code": "201",
    "place_name": "Essen",
    "phone_block_from": "5087000",
    "phone_block_to": "5087999",
    "block_size": "1000",
    "phone_provider": "1u1VersatelD"
  },
  {
    "area_code": "201",
    "place_name": "Essen",
    "phone_block_from": "5088000",
    "phone_block_to": "5088999",
    "block_size": "1000",
    "phone_provider": "1u1VersatelD"
  },
  {
    "area_code": "201",
    "place_name": "Essen",
    "phone_block_from": "5090000",
    "phone_block_to": "5090999",
    "block_size": "1000",
    "phone_provider": "Telefonica"
  },
  {
    "area_code": "201",
    "place_name": "Essen",
    "phone_block_from": "5091000",
    "phone_block_to": "5091999",
    "block_size": "1000",
    "phone_provider": "Telefonica"
  },
  {
    "area_code": "201",
    "place_name": "Essen",
    "phone_block_from": "5092000",
    "phone_block_to": "5092999",
    "block_size": "1000",
    "phone_provider": "Telefonica"
  },
  {
    "area_code": "201",
    "place_name": "Essen",
    "phone_block_from": "5093000",
    "phone_block_to": "5093999",
    "block_size": "1000",
    "phone_provider": "BT"
  },
  {
    "area_code": "201",
    "place_name": "Essen",
    "phone_block_from": "5094000",
    "phone_block_to": "5094999",
    "block_size": "1000",
    "phone_provider": "BT"
  },
  {
    "area_code": "201",
    "place_name": "Essen",
    "phone_block_from": "5095000",
    "phone_block_to": "5095999",
    "block_size": "1000",
    "phone_provider": "BT"
  },
  {
    "area_code": "201",
    "place_name": "Essen",
    "phone_block_from": "5096000",
    "phone_block_to": "5096999",
    "block_size": "1000",
    "phone_provider": "BT"
  },
  {
    "area_code": "201",
    "place_name": "Essen",
    "phone_block_from": "5097000",
    "phone_block_to": "5097999",
    "block_size": "1000",
    "phone_provider": "BT"
  },
  {
    "area_code": "201",
    "place_name": "Essen",
    "phone_block_from": "5098000",
    "phone_block_to": "5098999",
    "block_size": "1000",
    "phone_provider": "BT"
  },
  {
    "area_code": "201",
    "place_name": "Essen",
    "phone_block_from": "5099000",
    "phone_block_to": "5099999",
    "block_size": "1000",
    "phone_provider": "BT"
  },
  {
    "area_code": "201",
    "place_name": "Essen",
    "phone_block_from": "5119000",
    "phone_block_to": "5119999",
    "block_size": "1000",
    "phone_provider": "VodafoneNRW"
  },
  {
    "area_code": "201",
    "place_name": "Essen",
    "phone_block_from": "5138000",
    "phone_block_to": "5138999",
    "block_size": "1000",
    "phone_provider": "Telefonica"
  },
  {
    "area_code": "201",
    "place_name": "Essen",
    "phone_block_from": "5139000",
    "phone_block_to": "5139999",
    "block_size": "1000",
    "phone_provider": "Telefonica"
  },
  {
    "area_code": "201",
    "place_name": "Essen",
    "phone_block_from": "5147000",
    "phone_block_to": "5147999",
    "block_size": "1000",
    "phone_provider": "Telekom"
  },
  {
    "area_code": "201",
    "place_name": "Essen",
    "phone_block_from": "5167000",
    "phone_block_to": "5167999",
    "block_size": "1000",
    "phone_provider": "FirstT"
  },
  {
    "area_code": "201",
    "place_name": "Essen",
    "phone_block_from": "5178000",
    "phone_block_to": "5178999",
    "block_size": "1000",
    "phone_provider": "VerizonD"
  },
  {
    "area_code": "201",
    "place_name": "Essen",
    "phone_block_from": "5179000",
    "phone_block_to": "5179999",
    "block_size": "1000",
    "phone_provider": "VerizonD"
  },
  {
    "area_code": "201",
    "place_name": "Essen",
    "phone_block_from": "5190000",
    "phone_block_to": "5190999",
    "block_size": "1000",
    "phone_provider": "3U"
  },
  {
    "area_code": "201",
    "place_name": "Essen",
    "phone_block_from": "5200000",
    "phone_block_to": "5200999",
    "block_size": "1000",
    "phone_provider": "Vodafone"
  },
  {
    "area_code": "201",
    "place_name": "Essen",
    "phone_block_from": "5201000",
    "phone_block_to": "5201999",
    "block_size": "1000",
    "phone_provider": "Vodafone"
  },
  {
    "area_code": "201",
    "place_name": "Essen",
    "phone_block_from": "5202000",
    "phone_block_to": "5202999",
    "block_size": "1000",
    "phone_provider": "Vodafone"
  },
  {
    "area_code": "201",
    "place_name": "Essen",
    "phone_block_from": "5203000",
    "phone_block_to": "5203999",
    "block_size": "1000",
    "phone_provider": "Vodafone"
  },
  {
    "area_code": "201",
    "place_name": "Essen",
    "phone_block_from": "5204000",
    "phone_block_to": "5204999",
    "block_size": "1000",
    "phone_provider": "Vodafone"
  },
  {
    "area_code": "201",
    "place_name": "Essen",
    "phone_block_from": "5205000",
    "phone_block_to": "5205999",
    "block_size": "1000",
    "phone_provider": "Vodafone"
  },
  {
    "area_code": "201",
    "place_name": "Essen",
    "phone_block_from": "5206000",
    "phone_block_to": "5206999",
    "block_size": "1000",
    "phone_provider": "Vodafone"
  },
  {
    "area_code": "201",
    "place_name": "Essen",
    "phone_block_from": "5207000",
    "phone_block_to": "5207999",
    "block_size": "1000",
    "phone_provider": "Vodafone"
  },
  {
    "area_code": "201",
    "place_name": "Essen",
    "phone_block_from": "5208000",
    "phone_block_to": "5208999",
    "block_size": "1000",
    "phone_provider": "Vodafone"
  },
  {
    "area_code": "201",
    "place_name": "Essen",
    "phone_block_from": "5209000",
    "phone_block_to": "5209999",
    "block_size": "1000",
    "phone_provider": "Vodafone"
  },
  {
    "area_code": "201",
    "place_name": "Essen",
    "phone_block_from": "5226000",
    "phone_block_to": "5226999",
    "block_size": "1000",
    "phone_provider": "Vodafone"
  },
  {
    "area_code": "201",
    "place_name": "Essen",
    "phone_block_from": "5227000",
    "phone_block_to": "5227999",
    "block_size": "1000",
    "phone_provider": "Vodafone"
  },
  {
    "area_code": "201",
    "place_name": "Essen",
    "phone_block_from": "5228000",
    "phone_block_to": "5228999",
    "block_size": "1000",
    "phone_provider": "Vodafone"
  },
  {
    "area_code": "201",
    "place_name": "Essen",
    "phone_block_from": "5229000",
    "phone_block_to": "5229999",
    "block_size": "1000",
    "phone_provider": "Vodafone"
  },
  {
    "area_code": "201",
    "place_name": "Essen",
    "phone_block_from": "5230000",
    "phone_block_to": "5230999",
    "block_size": "1000",
    "phone_provider": "1u1VersatelD"
  },
  {
    "area_code": "201",
    "place_name": "Essen",
    "phone_block_from": "5231000",
    "phone_block_to": "5231999",
    "block_size": "1000",
    "phone_provider": "1u1VersatelD"
  },
  {
    "area_code": "201",
    "place_name": "Essen",
    "phone_block_from": "5232000",
    "phone_block_to": "5232999",
    "block_size": "1000",
    "phone_provider": "1u1VersatelD"
  },
  {
    "area_code": "201",
    "place_name": "Essen",
    "phone_block_from": "5233000",
    "phone_block_to": "5233999",
    "block_size": "1000",
    "phone_provider": "1u1VersatelD"
  },
  {
    "area_code": "201",
    "place_name": "Essen",
    "phone_block_from": "5234000",
    "phone_block_to": "5234999",
    "block_size": "1000",
    "phone_provider": "1u1VersatelD"
  },
  {
    "area_code": "201",
    "place_name": "Essen",
    "phone_block_from": "5235000",
    "phone_block_to": "5235999",
    "block_size": "1000",
    "phone_provider": "1u1VersatelD"
  },
  {
    "area_code": "201",
    "place_name": "Essen",
    "phone_block_from": "5236000",
    "phone_block_to": "5236999",
    "block_size": "1000",
    "phone_provider": "1u1VersatelD"
  },
  {
    "area_code": "201",
    "place_name": "Essen",
    "phone_block_from": "5237000",
    "phone_block_to": "5237999",
    "block_size": "1000",
    "phone_provider": "1u1VersatelD"
  },
  {
    "area_code": "201",
    "place_name": "Essen",
    "phone_block_from": "5238000",
    "phone_block_to": "5238999",
    "block_size": "1000",
    "phone_provider": "1u1VersatelD"
  },
  {
    "area_code": "201",
    "place_name": "Essen",
    "phone_block_from": "5239000",
    "phone_block_to": "5239999",
    "block_size": "1000",
    "phone_provider": "1u1VersatelD"
  },
  {
    "area_code": "201",
    "place_name": "Essen",
    "phone_block_from": "5250000",
    "phone_block_to": "5250999",
    "block_size": "1000",
    "phone_provider": "Vodafone"
  },
  {
    "area_code": "201",
    "place_name": "Essen",
    "phone_block_from": "5251000",
    "phone_block_to": "5251999",
    "block_size": "1000",
    "phone_provider": "Vodafone"
  },
  {
    "area_code": "201",
    "place_name": "Essen",
    "phone_block_from": "5252000",
    "phone_block_to": "5252999",
    "block_size": "1000",
    "phone_provider": "Vodafone"
  },
  {
    "area_code": "201",
    "place_name": "Essen",
    "phone_block_from": "5253000",
    "phone_block_to": "5253999",
    "block_size": "1000",
    "phone_provider": "Vodafone"
  },
  {
    "area_code": "201",
    "place_name": "Essen",
    "phone_block_from": "5254000",
    "phone_block_to": "5254999",
    "block_size": "1000",
    "phone_provider": "Vodafone"
  },
  {
    "area_code": "201",
    "place_name": "Essen",
    "phone_block_from": "5255000",
    "phone_block_to": "5255999",
    "block_size": "1000",
    "phone_provider": "Vodafone"
  },
  {
    "area_code": "201",
    "place_name": "Essen",
    "phone_block_from": "5256000",
    "phone_block_to": "5256999",
    "block_size": "1000",
    "phone_provider": "Vodafone"
  },
  {
    "area_code": "201",
    "place_name": "Essen",
    "phone_block_from": "5257000",
    "phone_block_to": "5257999",
    "block_size": "1000",
    "phone_provider": "Vodafone"
  },
  {
    "area_code": "201",
    "place_name": "Essen",
    "phone_block_from": "5258000",
    "phone_block_to": "5258999",
    "block_size": "1000",
    "phone_provider": "Vodafone"
  },
  {
    "area_code": "201",
    "place_name": "Essen",
    "phone_block_from": "5259000",
    "phone_block_to": "5259999",
    "block_size": "1000",
    "phone_provider": "Vodafone"
  },
  {
    "area_code": "201",
    "place_name": "Essen",
    "phone_block_from": "5366000",
    "phone_block_to": "5366999",
    "block_size": "1000",
    "phone_provider": "Telekom"
  },
  {
    "area_code": "201",
    "place_name": "Essen",
    "phone_block_from": "5367000",
    "phone_block_to": "5367999",
    "block_size": "1000",
    "phone_provider": "Telekom"
  },
  {
    "area_code": "201",
    "place_name": "Essen",
    "phone_block_from": "5368000",
    "phone_block_to": "5368999",
    "block_size": "1000",
    "phone_provider": "Telekom"
  },
  {
    "area_code": "201",
    "place_name": "Essen",
    "phone_block_from": "5434000",
    "phone_block_to": "5434999",
    "block_size": "1000",
    "phone_provider": "Telekom"
  },
  {
    "area_code": "201",
    "place_name": "Essen",
    "phone_block_from": "5435000",
    "phone_block_to": "5435999",
    "block_size": "1000",
    "phone_provider": "Telekom"
  },
  {
    "area_code": "201",
    "place_name": "Essen",
    "phone_block_from": "5436000",
    "phone_block_to": "5436999",
    "block_size": "1000",
    "phone_provider": "Telekom"
  },
  {
    "area_code": "201",
    "place_name": "Essen",
    "phone_block_from": "5437000",
    "phone_block_to": "5437999",
    "block_size": "1000",
    "phone_provider": "Telekom"
  },
  {
    "area_code": "201",
    "place_name": "Essen",
    "phone_block_from": "5450000",
    "phone_block_to": "5450999",
    "block_size": "1000",
    "phone_provider": "Telekom"
  },
  {
    "area_code": "201",
    "place_name": "Essen",
    "phone_block_from": "5451000",
    "phone_block_to": "5451999",
    "block_size": "1000",
    "phone_provider": "Telekom"
  },
  {
    "area_code": "201",
    "place_name": "Essen",
    "phone_block_from": "5452000",
    "phone_block_to": "5452999",
    "block_size": "1000",
    "phone_provider": "Telekom"
  },
  {
    "area_code": "201",
    "place_name": "Essen",
    "phone_block_from": "5453000",
    "phone_block_to": "5453999",
    "block_size": "1000",
    "phone_provider": "Telekom"
  },
  {
    "area_code": "201",
    "place_name": "Essen",
    "phone_block_from": "5454000",
    "phone_block_to": "5454999",
    "block_size": "1000",
    "phone_provider": "Telekom"
  },
  {
    "area_code": "201",
    "place_name": "Essen",
    "phone_block_from": "5455000",
    "phone_block_to": "5455999",
    "block_size": "1000",
    "phone_provider": "Telekom"
  },
  {
    "area_code": "201",
    "place_name": "Essen",
    "phone_block_from": "5456000",
    "phone_block_to": "5456999",
    "block_size": "1000",
    "phone_provider": "Telekom"
  },
  {
    "area_code": "201",
    "place_name": "Essen",
    "phone_block_from": "5457000",
    "phone_block_to": "5457999",
    "block_size": "1000",
    "phone_provider": "Telekom"
  },
  {
    "area_code": "201",
    "place_name": "Essen",
    "phone_block_from": "5458000",
    "phone_block_to": "5458999",
    "block_size": "1000",
    "phone_provider": "Telekom"
  },
  {
    "area_code": "201",
    "place_name": "Essen",
    "phone_block_from": "5460000",
    "phone_block_to": "5460999",
    "block_size": "1000",
    "phone_provider": "Vodafone"
  },
  {
    "area_code": "201",
    "place_name": "Essen",
    "phone_block_from": "5461000",
    "phone_block_to": "5461999",
    "block_size": "1000",
    "phone_provider": "Vodafone"
  },
  {
    "area_code": "201",
    "place_name": "Essen",
    "phone_block_from": "5462000",
    "phone_block_to": "5462999",
    "block_size": "1000",
    "phone_provider": "Vodafone"
  },
  {
    "area_code": "201",
    "place_name": "Essen",
    "phone_block_from": "5463000",
    "phone_block_to": "5463999",
    "block_size": "1000",
    "phone_provider": "Vodafone"
  },
  {
    "area_code": "201",
    "place_name": "Essen",
    "phone_block_from": "5464000",
    "phone_block_to": "5464999",
    "block_size": "1000",
    "phone_provider": "Vodafone"
  },
  {
    "area_code": "201",
    "place_name": "Essen",
    "phone_block_from": "5465000",
    "phone_block_to": "5465999",
    "block_size": "1000",
    "phone_provider": "Vodafone"
  },
  {
    "area_code": "201",
    "place_name": "Essen",
    "phone_block_from": "5466000",
    "phone_block_to": "5466999",
    "block_size": "1000",
    "phone_provider": "Vodafone"
  },
  {
    "area_code": "201",
    "place_name": "Essen",
    "phone_block_from": "5467000",
    "phone_block_to": "5467999",
    "block_size": "1000",
    "phone_provider": "Vodafone"
  },
  {
    "area_code": "201",
    "place_name": "Essen",
    "phone_block_from": "5468000",
    "phone_block_to": "5468999",
    "block_size": "1000",
    "phone_provider": "Vodafone"
  },
  {
    "area_code": "201",
    "place_name": "Essen",
    "phone_block_from": "5469000",
    "phone_block_to": "5469999",
    "block_size": "1000",
    "phone_provider": "Vodafone"
  },
  {
    "area_code": "201",
    "place_name": "Essen",
    "phone_block_from": "5579000",
    "phone_block_to": "5579999",
    "block_size": "1000",
    "phone_provider": "Telekom"
  },
  {
    "area_code": "201",
    "place_name": "Essen",
    "phone_block_from": "5587000",
    "phone_block_to": "5587999",
    "block_size": "1000",
    "phone_provider": "Telekom"
  },
  {
    "area_code": "201",
    "place_name": "Essen",
    "phone_block_from": "5589000",
    "phone_block_to": "5589999",
    "block_size": "1000",
    "phone_provider": "DNS:NET"
  },
  {
    "area_code": "201",
    "place_name": "Essen",
    "phone_block_from": "5596000",
    "phone_block_to": "5596999",
    "block_size": "1000",
    "phone_provider": "Vodafone"
  },
  {
    "area_code": "201",
    "place_name": "Essen",
    "phone_block_from": "5597000",
    "phone_block_to": "5597999",
    "block_size": "1000",
    "phone_provider": "Vodafone"
  },
  {
    "area_code": "201",
    "place_name": "Essen",
    "phone_block_from": "5598000",
    "phone_block_to": "5598999",
    "block_size": "1000",
    "phone_provider": "Vodafone"
  },
  {
    "area_code": "201",
    "place_name": "Essen",
    "phone_block_from": "5599000",
    "phone_block_to": "5599999",
    "block_size": "1000",
    "phone_provider": "Vodafone"
  },
  {
    "area_code": "201",
    "place_name": "Essen",
    "phone_block_from": "5600000",
    "phone_block_to": "5600999",
    "block_size": "1000",
    "phone_provider": "Telekom"
  },
  {
    "area_code": "201",
    "place_name": "Essen",
    "phone_block_from": "5603000",
    "phone_block_to": "5603999",
    "block_size": "1000",
    "phone_provider": "Telekom"
  },
  {
    "area_code": "201",
    "place_name": "Essen",
    "phone_block_from": "5620000",
    "phone_block_to": "5620999",
    "block_size": "1000",
    "phone_provider": "BNetzA2"
  },
  {
    "area_code": "201",
    "place_name": "Essen",
    "phone_block_from": "5623000",
    "phone_block_to": "5623999",
    "block_size": "1000",
    "phone_provider": "BNetzA2"
  },
  {
    "area_code": "201",
    "place_name": "Essen",
    "phone_block_from": "5624000",
    "phone_block_to": "5624999",
    "block_size": "1000",
    "phone_provider": "BNetzA2"
  },
  {
    "area_code": "201",
    "place_name": "Essen",
    "phone_block_from": "5625000",
    "phone_block_to": "5625999",
    "block_size": "1000",
    "phone_provider": "BNetzA2"
  },
  {
    "area_code": "201",
    "place_name": "Essen",
    "phone_block_from": "5626000",
    "phone_block_to": "5626999",
    "block_size": "1000",
    "phone_provider": "BNetzA2"
  },
  {
    "area_code": "201",
    "place_name": "Essen",
    "phone_block_from": "5627000",
    "phone_block_to": "5627999",
    "block_size": "1000",
    "phone_provider": "BNetzA2"
  },
  {
    "area_code": "201",
    "place_name": "Essen",
    "phone_block_from": "5628000",
    "phone_block_to": "5628999",
    "block_size": "1000",
    "phone_provider": "BNetzA2"
  },
  {
    "area_code": "201",
    "place_name": "Essen",
    "phone_block_from": "5629000",
    "phone_block_to": "5629999",
    "block_size": "1000",
    "phone_provider": "BNetzA2"
  },
  {
    "area_code": "201",
    "place_name": "Essen",
    "phone_block_from": "5631000",
    "phone_block_to": "5631999",
    "block_size": "1000",
    "phone_provider": "Telefonica"
  },
  {
    "area_code": "201",
    "place_name": "Essen",
    "phone_block_from": "5632000",
    "phone_block_to": "5632999",
    "block_size": "1000",
    "phone_provider": "Telefonica"
  },
  {
    "area_code": "201",
    "place_name": "Essen",
    "phone_block_from": "5633000",
    "phone_block_to": "5633999",
    "block_size": "1000",
    "phone_provider": "Telefonica"
  },
  {
    "area_code": "201",
    "place_name": "Essen",
    "phone_block_from": "5634000",
    "phone_block_to": "5634999",
    "block_size": "1000",
    "phone_provider": "Telefonica"
  },
  {
    "area_code": "201",
    "place_name": "Essen",
    "phone_block_from": "5635000",
    "phone_block_to": "5635999",
    "block_size": "1000",
    "phone_provider": "Telefonica"
  },
  {
    "area_code": "201",
    "place_name": "Essen",
    "phone_block_from": "5637000",
    "phone_block_to": "5637999",
    "block_size": "1000",
    "phone_provider": "Telefonica"
  },
  {
    "area_code": "201",
    "place_name": "Essen",
    "phone_block_from": "5638000",
    "phone_block_to": "5638999",
    "block_size": "1000",
    "phone_provider": "Telefonica"
  },
  {
    "area_code": "201",
    "place_name": "Essen",
    "phone_block_from": "5640000",
    "phone_block_to": "5640999",
    "block_size": "1000",
    "phone_provider": "Vodafone"
  },
  {
    "area_code": "201",
    "place_name": "Essen",
    "phone_block_from": "5641000",
    "phone_block_to": "5641999",
    "block_size": "1000",
    "phone_provider": "Vodafone"
  },
  {
    "area_code": "201",
    "place_name": "Essen",
    "phone_block_from": "5642000",
    "phone_block_to": "5642999",
    "block_size": "1000",
    "phone_provider": "Vodafone"
  },
  {
    "area_code": "201",
    "place_name": "Essen",
    "phone_block_from": "5643000",
    "phone_block_to": "5643999",
    "block_size": "1000",
    "phone_provider": "Vodafone"
  },
  {
    "area_code": "201",
    "place_name": "Essen",
    "phone_block_from": "5644000",
    "phone_block_to": "5644999",
    "block_size": "1000",
    "phone_provider": "Vodafone"
  },
  {
    "area_code": "201",
    "place_name": "Essen",
    "phone_block_from": "5645000",
    "phone_block_to": "5645999",
    "block_size": "1000",
    "phone_provider": "Vodafone"
  },
  {
    "area_code": "201",
    "place_name": "Essen",
    "phone_block_from": "5646000",
    "phone_block_to": "5646999",
    "block_size": "1000",
    "phone_provider": "Vodafone"
  },
  {
    "area_code": "201",
    "place_name": "Essen",
    "phone_block_from": "5647000",
    "phone_block_to": "5647999",
    "block_size": "1000",
    "phone_provider": "Vodafone"
  },
  {
    "area_code": "201",
    "place_name": "Essen",
    "phone_block_from": "5648000",
    "phone_block_to": "5648999",
    "block_size": "1000",
    "phone_provider": "Vodafone"
  },
  {
    "area_code": "201",
    "place_name": "Essen",
    "phone_block_from": "5649000",
    "phone_block_to": "5649999",
    "block_size": "1000",
    "phone_provider": "Vodafone"
  },
  {
    "area_code": "201",
    "place_name": "Essen",
    "phone_block_from": "5657000",
    "phone_block_to": "5657999",
    "block_size": "1000",
    "phone_provider": "Colt"
  },
  {
    "area_code": "201",
    "place_name": "Essen",
    "phone_block_from": "5658000",
    "phone_block_to": "5658999",
    "block_size": "1000",
    "phone_provider": "Colt"
  },
  {
    "area_code": "201",
    "place_name": "Essen",
    "phone_block_from": "5659000",
    "phone_block_to": "5659999",
    "block_size": "1000",
    "phone_provider": "Colt"
  },
  {
    "area_code": "201",
    "place_name": "Essen",
    "phone_block_from": "5718000",
    "phone_block_to": "5718999",
    "block_size": "1000",
    "phone_provider": "Telekom"
  },
  {
    "area_code": "201",
    "place_name": "Essen",
    "phone_block_from": "5809000",
    "phone_block_to": "5809999",
    "block_size": "1000",
    "phone_provider": "Telekom"
  },
  {
    "area_code": "201",
    "place_name": "Essen",
    "phone_block_from": "5849000",
    "phone_block_to": "5849999",
    "block_size": "1000",
    "phone_provider": "Telekom"
  },
  {
    "area_code": "201",
    "place_name": "Essen",
    "phone_block_from": "5922000",
    "phone_block_to": "5922999",
    "block_size": "1000",
    "phone_provider": "Telekom"
  },
  {
    "area_code": "201",
    "place_name": "Essen",
    "phone_block_from": "5927000",
    "phone_block_to": "5927999",
    "block_size": "1000",
    "phone_provider": "Telekom"
  },
  {
    "area_code": "201",
    "place_name": "Essen",
    "phone_block_from": "5978000",
    "phone_block_to": "5978999",
    "block_size": "1000",
    "phone_provider": "Telekom"
  },
  {
    "area_code": "201",
    "place_name": "Essen",
    "phone_block_from": "5980000",
    "phone_block_to": "5980999",
    "block_size": "1000",
    "phone_provider": "Telekom"
  },
  {
    "area_code": "201",
    "place_name": "Essen",
    "phone_block_from": "5990000",
    "phone_block_to": "5990999",
    "block_size": "1000",
    "phone_provider": "DTMS"
  },
  {
    "area_code": "201",
    "place_name": "Essen",
    "phone_block_from": "5997000",
    "phone_block_to": "5997999",
    "block_size": "1000",
    "phone_provider": "DTMS"
  },
  {
    "area_code": "201",
    "place_name": "Essen",
    "phone_block_from": "6099000",
    "phone_block_to": "6099999",
    "block_size": "1000",
    "phone_provider": "Telekom"
  },
  {
    "area_code": "201",
    "place_name": "Essen",
    "phone_block_from": "6120000",
    "phone_block_to": "6120999",
    "block_size": "1000",
    "phone_provider": "Vodafone"
  },
  {
    "area_code": "201",
    "place_name": "Essen",
    "phone_block_from": "6121000",
    "phone_block_to": "6121999",
    "block_size": "1000",
    "phone_provider": "Vodafone"
  },
  {
    "area_code": "201",
    "place_name": "Essen",
    "phone_block_from": "6122000",
    "phone_block_to": "6122999",
    "block_size": "1000",
    "phone_provider": "Vodafone"
  },
  {
    "area_code": "201",
    "place_name": "Essen",
    "phone_block_from": "6123000",
    "phone_block_to": "6123999",
    "block_size": "1000",
    "phone_provider": "Vodafone"
  },
  {
    "area_code": "201",
    "place_name": "Essen",
    "phone_block_from": "6124000",
    "phone_block_to": "6124999",
    "block_size": "1000",
    "phone_provider": "Vodafone"
  },
  {
    "area_code": "201",
    "place_name": "Essen",
    "phone_block_from": "6125000",
    "phone_block_to": "6125999",
    "block_size": "1000",
    "phone_provider": "Vodafone"
  },
  {
    "area_code": "201",
    "place_name": "Essen",
    "phone_block_from": "6126000",
    "phone_block_to": "6126999",
    "block_size": "1000",
    "phone_provider": "Vodafone"
  },
  {
    "area_code": "201",
    "place_name": "Essen",
    "phone_block_from": "6127000",
    "phone_block_to": "6127999",
    "block_size": "1000",
    "phone_provider": "Vodafone"
  },
  {
    "area_code": "201",
    "place_name": "Essen",
    "phone_block_from": "6128000",
    "phone_block_to": "6128999",
    "block_size": "1000",
    "phone_provider": "Vodafone"
  },
  {
    "area_code": "201",
    "place_name": "Essen",
    "phone_block_from": "6129000",
    "phone_block_to": "6129999",
    "block_size": "1000",
    "phone_provider": "Vodafone"
  },
  {
    "area_code": "201",
    "place_name": "Essen",
    "phone_block_from": "6131000",
    "phone_block_to": "6131999",
    "block_size": "1000",
    "phone_provider": "Telekom"
  },
  {
    "area_code": "201",
    "place_name": "Essen",
    "phone_block_from": "6135000",
    "phone_block_to": "6135999",
    "block_size": "1000",
    "phone_provider": "Telekom"
  },
  {
    "area_code": "201",
    "place_name": "Essen",
    "phone_block_from": "6140000",
    "phone_block_to": "6140999",
    "block_size": "1000",
    "phone_provider": "Telekom"
  },
  {
    "area_code": "201",
    "place_name": "Essen",
    "phone_block_from": "6141000",
    "phone_block_to": "6141999",
    "block_size": "1000",
    "phone_provider": "Telekom"
  },
  {
    "area_code": "201",
    "place_name": "Essen",
    "phone_block_from": "6142000",
    "phone_block_to": "6142999",
    "block_size": "1000",
    "phone_provider": "Telekom"
  },
  {
    "area_code": "201",
    "place_name": "Essen",
    "phone_block_from": "6143000",
    "phone_block_to": "6143999",
    "block_size": "1000",
    "phone_provider": "Telekom"
  },
  {
    "area_code": "201",
    "place_name": "Essen",
    "phone_block_from": "6144000",
    "phone_block_to": "6144999",
    "block_size": "1000",
    "phone_provider": "Telekom"
  },
  {
    "area_code": "201",
    "place_name": "Essen",
    "phone_block_from": "6150000",
    "phone_block_to": "6150999",
    "block_size": "1000",
    "phone_provider": "Telekom"
  },
  {
    "area_code": "201",
    "place_name": "Essen",
    "phone_block_from": "6151000",
    "phone_block_to": "6151999",
    "block_size": "1000",
    "phone_provider": "Telekom"
  },
  {
    "area_code": "201",
    "place_name": "Essen",
    "phone_block_from": "6152000",
    "phone_block_to": "6152999",
    "block_size": "1000",
    "phone_provider": "Telekom"
  },
  {
    "area_code": "201",
    "place_name": "Essen",
    "phone_block_from": "6153000",
    "phone_block_to": "6153999",
    "block_size": "1000",
    "phone_provider": "Telekom"
  },
  {
    "area_code": "201",
    "place_name": "Essen",
    "phone_block_from": "6154000",
    "phone_block_to": "6154999",
    "block_size": "1000",
    "phone_provider": "Telekom"
  },
  {
    "area_code": "201",
    "place_name": "Essen",
    "phone_block_from": "6155000",
    "phone_block_to": "6155999",
    "block_size": "1000",
    "phone_provider": "Telekom"
  },
  {
    "area_code": "201",
    "place_name": "Essen",
    "phone_block_from": "6156000",
    "phone_block_to": "6156999",
    "block_size": "1000",
    "phone_provider": "Telekom"
  },
  {
    "area_code": "201",
    "place_name": "Essen",
    "phone_block_from": "6157000",
    "phone_block_to": "6157999",
    "block_size": "1000",
    "phone_provider": "Telekom"
  },
  {
    "area_code": "201",
    "place_name": "Essen",
    "phone_block_from": "6158000",
    "phone_block_to": "6158999",
    "block_size": "1000",
    "phone_provider": "Telekom"
  },
  {
    "area_code": "201",
    "place_name": "Essen",
    "phone_block_from": "6159000",
    "phone_block_to": "6159999",
    "block_size": "1000",
    "phone_provider": "Telekom"
  },
  {
    "area_code": "201",
    "place_name": "Essen",
    "phone_block_from": "6160000",
    "phone_block_to": "6160999",
    "block_size": "1000",
    "phone_provider": "Telekom"
  },
  {
    "area_code": "201",
    "place_name": "Essen",
    "phone_block_from": "6161000",
    "phone_block_to": "6161999",
    "block_size": "1000",
    "phone_provider": "Telekom"
  },
  {
    "area_code": "201",
    "place_name": "Essen",
    "phone_block_from": "6162000",
    "phone_block_to": "6162999",
    "block_size": "1000",
    "phone_provider": "Telekom"
  },
  {
    "area_code": "201",
    "place_name": "Essen",
    "phone_block_from": "6163000",
    "phone_block_to": "6163999",
    "block_size": "1000",
    "phone_provider": "Telekom"
  },
  {
    "area_code": "201",
    "place_name": "Essen",
    "phone_block_from": "6164000",
    "phone_block_to": "6164999",
    "block_size": "1000",
    "phone_provider": "Telekom"
  },
  {
    "area_code": "201",
    "place_name": "Essen",
    "phone_block_from": "6165000",
    "phone_block_to": "6165999",
    "block_size": "1000",
    "phone_provider": "Telekom"
  },
  {
    "area_code": "201",
    "place_name": "Essen",
    "phone_block_from": "6166000",
    "phone_block_to": "6166999",
    "block_size": "1000",
    "phone_provider": "Telekom"
  },
  {
    "area_code": "201",
    "place_name": "Essen",
    "phone_block_from": "6167000",
    "phone_block_to": "6167999",
    "block_size": "1000",
    "phone_provider": "Telekom"
  },
  {
    "area_code": "201",
    "place_name": "Essen",
    "phone_block_from": "6168000",
    "phone_block_to": "6168999",
    "block_size": "1000",
    "phone_provider": "Telekom"
  },
  {
    "area_code": "201",
    "place_name": "Essen",
    "phone_block_from": "6169000",
    "phone_block_to": "6169999",
    "block_size": "1000",
    "phone_provider": "Telekom"
  },
  {
    "area_code": "201",
    "place_name": "Essen",
    "phone_block_from": "6170000",
    "phone_block_to": "6170999",
    "block_size": "1000",
    "phone_provider": "Vodafone"
  },
  {
    "area_code": "201",
    "place_name": "Essen",
    "phone_block_from": "6171000",
    "phone_block_to": "6171999",
    "block_size": "1000",
    "phone_provider": "Vodafone"
  },
  {
    "area_code": "201",
    "place_name": "Essen",
    "phone_block_from": "6172000",
    "phone_block_to": "6172999",
    "block_size": "1000",
    "phone_provider": "Vodafone"
  },
  {
    "area_code": "201",
    "place_name": "Essen",
    "phone_block_from": "6173000",
    "phone_block_to": "6173999",
    "block_size": "1000",
    "phone_provider": "Vodafone"
  },
  {
    "area_code": "201",
    "place_name": "Essen",
    "phone_block_from": "6174000",
    "phone_block_to": "6174999",
    "block_size": "1000",
    "phone_provider": "Vodafone"
  },
  {
    "area_code": "201",
    "place_name": "Essen",
    "phone_block_from": "6175000",
    "phone_block_to": "6175999",
    "block_size": "1000",
    "phone_provider": "Vodafone"
  },
  {
    "area_code": "201",
    "place_name": "Essen",
    "phone_block_from": "6176000",
    "phone_block_to": "6176999",
    "block_size": "1000",
    "phone_provider": "Vodafone"
  },
  {
    "area_code": "201",
    "place_name": "Essen",
    "phone_block_from": "6177000",
    "phone_block_to": "6177999",
    "block_size": "1000",
    "phone_provider": "Vodafone"
  },
  {
    "area_code": "201",
    "place_name": "Essen",
    "phone_block_from": "6178000",
    "phone_block_to": "6178999",
    "block_size": "1000",
    "phone_provider": "Vodafone"
  },
  {
    "area_code": "201",
    "place_name": "Essen",
    "phone_block_from": "6179000",
    "phone_block_to": "6179999",
    "block_size": "1000",
    "phone_provider": "Vodafone"
  },
  {
    "area_code": "201",
    "place_name": "Essen",
    "phone_block_from": "6300000",
    "phone_block_to": "6300999",
    "block_size": "1000",
    "phone_provider": "Telekom"
  },
  {
    "area_code": "201",
    "place_name": "Essen",
    "phone_block_from": "6301000",
    "phone_block_to": "6301999",
    "block_size": "1000",
    "phone_provider": "Telekom"
  },
  {
    "area_code": "201",
    "place_name": "Essen",
    "phone_block_from": "6302000",
    "phone_block_to": "6302999",
    "block_size": "1000",
    "phone_provider": "Telekom"
  },
  {
    "area_code": "201",
    "place_name": "Essen",
    "phone_block_from": "6311000",
    "phone_block_to": "6311999",
    "block_size": "1000",
    "phone_provider": "Telekom"
  },
  {
    "area_code": "201",
    "place_name": "Essen",
    "phone_block_from": "6320000",
    "phone_block_to": "6320999",
    "block_size": "1000",
    "phone_provider": "Telekom"
  },
  {
    "area_code": "201",
    "place_name": "Essen",
    "phone_block_from": "6321000",
    "phone_block_to": "6321999",
    "block_size": "1000",
    "phone_provider": "Telekom"
  },
  {
    "area_code": "201",
    "place_name": "Essen",
    "phone_block_from": "6322000",
    "phone_block_to": "6322999",
    "block_size": "1000",
    "phone_provider": "Telekom"
  },
  {
    "area_code": "201",
    "place_name": "Essen",
    "phone_block_from": "6323000",
    "phone_block_to": "6323999",
    "block_size": "1000",
    "phone_provider": "Telekom"
  },
  {
    "area_code": "201",
    "place_name": "Essen",
    "phone_block_from": "6324000",
    "phone_block_to": "6324999",
    "block_size": "1000",
    "phone_provider": "Telekom"
  },
  {
    "area_code": "201",
    "place_name": "Essen",
    "phone_block_from": "6325000",
    "phone_block_to": "6325999",
    "block_size": "1000",
    "phone_provider": "Telekom"
  },
  {
    "area_code": "201",
    "place_name": "Essen",
    "phone_block_from": "6326000",
    "phone_block_to": "6326999",
    "block_size": "1000",
    "phone_provider": "Telekom"
  },
  {
    "area_code": "201",
    "place_name": "Essen",
    "phone_block_from": "6327000",
    "phone_block_to": "6327999",
    "block_size": "1000",
    "phone_provider": "Telekom"
  },
  {
    "area_code": "201",
    "place_name": "Essen",
    "phone_block_from": "6328000",
    "phone_block_to": "6328999",
    "block_size": "1000",
    "phone_provider": "Telekom"
  },
  {
    "area_code": "201",
    "place_name": "Essen",
    "phone_block_from": "6329000",
    "phone_block_to": "6329999",
    "block_size": "1000",
    "phone_provider": "Telekom"
  },
  {
    "area_code": "201",
    "place_name": "Essen",
    "phone_block_from": "6330000",
    "phone_block_to": "6330999",
    "block_size": "1000",
    "phone_provider": "Telekom"
  },
  {
    "area_code": "201",
    "place_name": "Essen",
    "phone_block_from": "6331000",
    "phone_block_to": "6331999",
    "block_size": "1000",
    "phone_provider": "Telekom"
  },
  {
    "area_code": "201",
    "place_name": "Essen",
    "phone_block_from": "6332000",
    "phone_block_to": "6332999",
    "block_size": "1000",
    "phone_provider": "Telekom"
  },
  {
    "area_code": "201",
    "place_name": "Essen",
    "phone_block_from": "6333000",
    "phone_block_to": "6333999",
    "block_size": "1000",
    "phone_provider": "Telekom"
  },
  {
    "area_code": "201",
    "place_name": "Essen",
    "phone_block_from": "6334000",
    "phone_block_to": "6334999",
    "block_size": "1000",
    "phone_provider": "Telekom"
  },
  {
    "area_code": "201",
    "place_name": "Essen",
    "phone_block_from": "6335000",
    "phone_block_to": "6335999",
    "block_size": "1000",
    "phone_provider": "Telekom"
  },
  {
    "area_code": "201",
    "place_name": "Essen",
    "phone_block_from": "6336000",
    "phone_block_to": "6336999",
    "block_size": "1000",
    "phone_provider": "Telekom"
  },
  {
    "area_code": "201",
    "place_name": "Essen",
    "phone_block_from": "6337000",
    "phone_block_to": "6337999",
    "block_size": "1000",
    "phone_provider": "Telekom"
  },
  {
    "area_code": "201",
    "place_name": "Essen",
    "phone_block_from": "6338000",
    "phone_block_to": "6338999",
    "block_size": "1000",
    "phone_provider": "Telekom"
  },
  {
    "area_code": "201",
    "place_name": "Essen",
    "phone_block_from": "6339000",
    "phone_block_to": "6339999",
    "block_size": "1000",
    "phone_provider": "Telekom"
  },
  {
    "area_code": "201",
    "place_name": "Essen",
    "phone_block_from": "6346000",
    "phone_block_to": "6346999",
    "block_size": "1000",
    "phone_provider": "Telekom"
  },
  {
    "area_code": "201",
    "place_name": "Essen",
    "phone_block_from": "6349000",
    "phone_block_to": "6349999",
    "block_size": "1000",
    "phone_provider": "Telekom"
  },
  {
    "area_code": "201",
    "place_name": "Essen",
    "phone_block_from": "6400000",
    "phone_block_to": "6400999",
    "block_size": "1000",
    "phone_provider": "1u1VersatelD"
  },
  {
    "area_code": "201",
    "place_name": "Essen",
    "phone_block_from": "6439000",
    "phone_block_to": "6439999",
    "block_size": "1000",
    "phone_provider": "1u1VersatelD"
  },
  {
    "area_code": "201",
    "place_name": "Essen",
    "phone_block_from": "6446000",
    "phone_block_to": "6446999",
    "block_size": "1000",
    "phone_provider": "BT"
  },
  {
    "area_code": "201",
    "place_name": "Essen",
    "phone_block_from": "6447000",
    "phone_block_to": "6447999",
    "block_size": "1000",
    "phone_provider": "BT"
  },
  {
    "area_code": "201",
    "place_name": "Essen",
    "phone_block_from": "6448000",
    "phone_block_to": "6448999",
    "block_size": "1000",
    "phone_provider": "BT"
  },
  {
    "area_code": "201",
    "place_name": "Essen",
    "phone_block_from": "6449000",
    "phone_block_to": "6449999",
    "block_size": "1000",
    "phone_provider": "Telefonica"
  },
  {
    "area_code": "201",
    "place_name": "Essen",
    "phone_block_from": "6461000",
    "phone_block_to": "6461999",
    "block_size": "1000",
    "phone_provider": "Telekom"
  },
  {
    "area_code": "201",
    "place_name": "Essen",
    "phone_block_from": "6462000",
    "phone_block_to": "6462999",
    "block_size": "1000",
    "phone_provider": "Telekom"
  },
  {
    "area_code": "201",
    "place_name": "Essen",
    "phone_block_from": "6463000",
    "phone_block_to": "6463999",
    "block_size": "1000",
    "phone_provider": "Telekom"
  },
  {
    "area_code": "201",
    "place_name": "Essen",
    "phone_block_from": "6464000",
    "phone_block_to": "6464999",
    "block_size": "1000",
    "phone_provider": "Telekom"
  },
  {
    "area_code": "201",
    "place_name": "Essen",
    "phone_block_from": "6470000",
    "phone_block_to": "6470999",
    "block_size": "1000",
    "phone_provider": "Telefonica"
  },
  {
    "area_code": "201",
    "place_name": "Essen",
    "phone_block_from": "6471000",
    "phone_block_to": "6471999",
    "block_size": "1000",
    "phone_provider": "Telefonica"
  },
  {
    "area_code": "201",
    "place_name": "Essen",
    "phone_block_from": "6472000",
    "phone_block_to": "6472999",
    "block_size": "1000",
    "phone_provider": "Telefonica"
  },
  {
    "area_code": "201",
    "place_name": "Essen",
    "phone_block_from": "6473000",
    "phone_block_to": "6473999",
    "block_size": "1000",
    "phone_provider": "Telefonica"
  },
  {
    "area_code": "201",
    "place_name": "Essen",
    "phone_block_from": "6474000",
    "phone_block_to": "6474999",
    "block_size": "1000",
    "phone_provider": "Telefonica"
  },
  {
    "area_code": "201",
    "place_name": "Essen",
    "phone_block_from": "6475000",
    "phone_block_to": "6475999",
    "block_size": "1000",
    "phone_provider": "Telefonica"
  },
  {
    "area_code": "201",
    "place_name": "Essen",
    "phone_block_from": "6476000",
    "phone_block_to": "6476999",
    "block_size": "1000",
    "phone_provider": "Telefonica"
  },
  {
    "area_code": "201",
    "place_name": "Essen",
    "phone_block_from": "6477000",
    "phone_block_to": "6477999",
    "block_size": "1000",
    "phone_provider": "Telefonica"
  },
  {
    "area_code": "201",
    "place_name": "Essen",
    "phone_block_from": "6478000",
    "phone_block_to": "6478999",
    "block_size": "1000",
    "phone_provider": "Telefonica"
  },
  {
    "area_code": "201",
    "place_name": "Essen",
    "phone_block_from": "6479000",
    "phone_block_to": "6479999",
    "block_size": "1000",
    "phone_provider": "Telefonica"
  },
  {
    "area_code": "201",
    "place_name": "Essen",
    "phone_block_from": "6480000",
    "phone_block_to": "6480999",
    "block_size": "1000",
    "phone_provider": "Telefonica"
  },
  {
    "area_code": "201",
    "place_name": "Essen",
    "phone_block_from": "6481000",
    "phone_block_to": "6481999",
    "block_size": "1000",
    "phone_provider": "Telefonica"
  },
  {
    "area_code": "201",
    "place_name": "Essen",
    "phone_block_from": "6482000",
    "phone_block_to": "6482999",
    "block_size": "1000",
    "phone_provider": "Telefonica"
  },
  {
    "area_code": "201",
    "place_name": "Essen",
    "phone_block_from": "6483000",
    "phone_block_to": "6483999",
    "block_size": "1000",
    "phone_provider": "Telefonica"
  },
  {
    "area_code": "201",
    "place_name": "Essen",
    "phone_block_from": "6484000",
    "phone_block_to": "6484999",
    "block_size": "1000",
    "phone_provider": "Telefonica"
  },
  {
    "area_code": "201",
    "place_name": "Essen",
    "phone_block_from": "6485000",
    "phone_block_to": "6485999",
    "block_size": "1000",
    "phone_provider": "Telefonica"
  },
  {
    "area_code": "201",
    "place_name": "Essen",
    "phone_block_from": "6486000",
    "phone_block_to": "6486999",
    "block_size": "1000",
    "phone_provider": "Telefonica"
  },
  {
    "area_code": "201",
    "place_name": "Essen",
    "phone_block_from": "6487000",
    "phone_block_to": "6487999",
    "block_size": "1000",
    "phone_provider": "Telefonica"
  },
  {
    "area_code": "201",
    "place_name": "Essen",
    "phone_block_from": "6488000",
    "phone_block_to": "6488999",
    "block_size": "1000",
    "phone_provider": "Telefonica"
  },
  {
    "area_code": "201",
    "place_name": "Essen",
    "phone_block_from": "6489000",
    "phone_block_to": "6489999",
    "block_size": "1000",
    "phone_provider": "Telefonica"
  },
  {
    "area_code": "201",
    "place_name": "Essen",
    "phone_block_from": "6490000",
    "phone_block_to": "6490999",
    "block_size": "1000",
    "phone_provider": "Vodafone"
  }
]